{
"type": "FeatureCollection",
"name": "NC-NX_Offset",
"crs": { "type": "name", "properties": { "name": "urn:ogc:def:crs:OGC:1.3:CRS84" } },
"features": [
{"type":"Feature","properties":{"Area":"80473.7728"},"geometry":{"type":"MultiPolygon","coordinates":[[[[104.916119724465872,18.788376875937139],[104.916259259514817,18.788061116972848],[104.916527217101802,18.78781286543326],[104.916879357594183,18.787691010348762],[104.917206817481755,18.787216555729724],[104.917449029729895,18.786633743189476],[104.917588964965518,18.786555241706072],[104.917847523740676,18.786410193798407],[104.917975667290264,18.786328917721622],[104.918011163439701,18.786315367362231],[104.918068168987134,18.786267943207633],[104.918509335880728,18.785922435106393],[104.918844012198576,18.78544133776446],[104.919029090026626,18.785021108787184],[104.919071962409035,18.78468220468886],[104.919186100155073,18.784099243800458],[104.91950303586745,18.783857977282711],[104.919677397051913,18.783758409050993],[104.919816846504261,18.783741866260176],[104.919973591917909,18.783891493286891],[104.920025760643767,18.784157411791888],[104.920112657619484,18.784689223204062],[104.920217017443591,18.785054897592865],[104.920356325700354,18.785320762791351],[104.920624370674631,18.785897090587333],[104.920818786425613,18.785934309981048],[104.921014600405712,18.785883156812655],[104.921234144966476,18.785794858484792],[104.921447571723633,18.785659288911088],[104.921846111734865,18.785401947148831],[104.922102167341478,18.785483386502587],[104.922343980688808,18.785646097760608],[104.922756446057903,18.785958122811859],[104.922804716644663,18.786022222548461],[104.923495437069022,18.785841106796131],[104.923704598555432,18.785680197178841],[104.923555301428635,18.785550009195592],[104.923496883583269,18.785506076510575],[104.921920501107522,18.784155731368131],[104.920715897000633,18.78307914944827],[104.918908864150751,18.781787081711489],[104.918156443862344,18.780208510074502],[104.916122977471034,18.779992392616911],[104.914993865445155,18.778700591696438],[104.915606278460899,18.776939485012143],[104.915261809066749,18.776123762143957],[104.9139499563519,18.775695263558823],[104.912694970529216,18.775168598258265],[104.911262561289874,18.773848349220273],[104.911064140095178,18.773379410388202],[104.911292914704433,18.773072230593591],[104.911529547307936,18.773044097511203],[104.911712726447519,18.773171844429172],[104.911888161084903,18.77336963122114],[104.912155288935026,18.773427377170268],[104.91240706977257,18.77335406241836],[104.912872344101885,18.773268418051089],[104.913215680425566,18.773323934905566],[104.914138796355402,18.773778519213593],[104.915413111952972,18.774586865954422],[104.915718172608777,18.774701109026591],[104.916684720067579,18.775100066545725],[104.917695300735076,18.775030510310071],[104.917879070327089,18.774960587137112],[104.918026236489325,18.774593130674084],[104.91811826466386,18.774260651939294],[104.918375813577299,18.773595726404242],[104.91848626436915,18.773158249454649],[104.91848646626093,18.772738225377381],[104.91848676908856,18.772108189226117],[104.91828481509566,18.77179308289077],[104.917862298884273,18.771652889632954],[104.917531725902379,18.771355226922608],[104.917219646805918,18.770812557670077],[104.916999332192674,18.770479940772876],[104.916705543473654,18.77011228886002],[104.916374941007717,18.769884628106809],[104.915621699814409,18.769779283562503],[104.914960298182322,18.769726480821188],[104.914666444758225,18.769498833761446],[104.914666612044471,18.769166314604238],[104.914777025496662,18.768816344712175],[104.914915072391551,18.768317628698657],[104.914795802765838,18.768011306624548],[104.914639849666301,18.767582460612459],[104.914502217142598,18.767258628929625],[104.91436451888319,18.767066054730087],[104.914079733101332,18.767083425086753],[104.91390518351092,18.767100845805167],[104.913307922935928,18.767389336574283],[104.912866873827184,18.76759039321459],[104.912563651114851,18.767730259765997],[104.912416700536426,18.767668937430923],[104.912361659082435,18.767520153012697],[104.912361848949914,18.767152631782988],[104.912316102607505,18.766793839509031],[104.912279637790107,18.766251290887197],[104.912151333071563,18.765664946554068],[104.911986193465779,18.765253594955148],[104.911637197868771,18.765095921179601],[104.911233094661725,18.764920719579361],[104.910985167311765,18.764728090500821],[104.910856721079554,18.764421761462209],[104.910875226795497,18.76416800548937],[104.911114141198681,18.764028111046485],[104.91134385074028,18.763923213973165],[104.911555187647465,18.76381830792619],[104.911582828252676,18.763660811803529],[104.911491044179144,18.763512009695688],[104.910940007834057,18.763257983241701],[104.91053584051653,18.763214037755752],[104.910131738296243,18.763047584272435],[104.909837926161842,18.762776176989696],[104.909479774894791,18.762574742199895],[104.908836846076895,18.762390669133811],[104.908432690833962,18.762329218090734],[104.908120382582183,18.762294062859048],[104.90767022121112,18.762372595741837],[104.90738539968693,18.762468710521013],[104.906950734946932,18.762866582138205],[104.906640969197028,18.76311587814391],[104.906219384038536,18.7631935311692],[104.905819791960283,18.763393082599823],[104.905483423419767,18.763281556337642],[104.90519877025956,18.763071399999937],[104.904868304936258,18.76265120767652],[104.904602212735483,18.762108540454484],[104.904345125776175,18.761889646352348],[104.904198163486612,18.761863319588809],[104.904097077175948,18.761933271864038],[104.904005112504706,18.762116985407918],[104.903949822655619,18.76242322489145],[104.903912929609589,18.762685721250421],[104.903631352770319,18.762828098279638],[104.903368556797616,18.762747313109053],[104.903306735953009,18.76252789959808],[104.903306880556471,18.76227413487053],[104.903353045247314,18.761862884730178],[104.903316699822412,18.761162825042302],[104.903041558890592,18.76039263754841],[104.902701998415139,18.759832428400898],[104.902454058033499,18.759692291042953],[104.902297886809563,18.759709710549142],[104.902205916369581,18.75990217375843],[104.902104567935879,18.760427151471724],[104.901927509528065,18.760630484331827],[104.901837997083874,18.760733279657593],[104.901681845119342,18.760715696606812],[104.901544060119377,18.760706873607745],[104.901455109194089,18.760618652763579],[104.901314542306849,18.760479239330976],[104.901130934617569,18.76028663109371],[104.900901489462541,18.759936489172418],[104.900800684267566,18.75952516164827],[104.900506918848393,18.759209987146463],[104.90022222724933,18.759087328303313],[104.900047653607245,18.759157239191371],[104.899881971508208,18.7597259338844],[104.900083676937925,18.760175063811399],[104.900010152061213,18.76044354443416],[104.899771218130041,18.760609676251651],[104.89930268546118,18.760688179162045],[104.899082278630729,18.760591804732524],[104.899005851918318,18.760455111654846],[104.898935459003155,18.760329210108576],[104.898844105094526,18.759480361072431],[104.898798441519247,18.759034060235926],[104.89866072596854,18.758911478490358],[104.898394418494846,18.758771325803274],[104.897999503725458,18.758639853156399],[104.897659636285908,18.758622166471586],[104.897264717143599,18.758499442785386],[104.897072020539625,18.758158066837197],[104.897063391896083,18.757239258171914],[104.897035967151709,18.757020480226767],[104.89693498175572,18.756924168954264],[104.896815555735628,18.756941604139516],[104.896686879978262,18.757064040308265],[104.89641119365065,18.75724764862353],[104.896236535888477,18.757443160137537],[104.896098661650356,18.757597495817979],[104.89585962592767,18.757929882381667],[104.895409271105024,18.758332154674175],[104.894398651589569,18.758904366462936],[104.894159659356504,18.758865232946142],[104.894012739556729,18.758777644629266],[104.893159067987938,18.757797101570006],[104.89271843504865,18.757341822695519],[104.892387812106335,18.75723662661613],[104.892176571733742,18.757184001887158],[104.891834806318158,18.756855401093397],[104.891947377652201,18.75647507806077],[104.892259899429519,18.756151489324765],[104.893289468657471,18.754935757968429],[104.893528587468595,18.75447211689891],[104.893620696348378,18.754069645568091],[104.893437148265093,18.753807025616574],[104.892959534188037,18.753745499330094],[104.892362540666483,18.753631400078731],[104.891664729569953,18.753167219914584],[104.89032418688447,18.752308888193614],[104.889785291924838,18.752034213220913],[104.889653863765901,18.751967223866043],[104.889663316556778,18.751555955125262],[104.889957479594585,18.751206107663094],[104.890674195498477,18.750821505029535],[104.891471407401895,18.750658185024712],[104.892079755443291,18.750533553921613],[104.89295257193065,18.750219036627279],[104.89347627345478,18.750009323043322],[104.89376119677155,18.749729468397327],[104.893660294273843,18.749510648071453],[104.893155284664488,18.749212842686099],[104.892319603729234,18.748914845935008],[104.89169522780314,18.748555714233255],[104.891272819621065,18.748371708328289],[104.890914647798496,18.748283994659207],[104.890446201651514,18.748274970463239],[104.890023665201099,18.74829222364491],[104.889827783621016,18.74844471139976],[104.889619305951754,18.748607004290186],[104.889113671939626,18.749280495363525],[104.888911404615882,18.749569142525754],[104.888654058547232,18.749805253575001],[104.888268184925892,18.749936281329724],[104.887836481848836,18.749918522000655],[104.887501853413681,18.749963273950861],[104.887119955363175,18.750014346800988],[104.886881041130763,18.7501542108051],[104.886580757312757,18.750451190543579],[104.886182485152602,18.750845078070448],[104.885603647497021,18.751072238497752],[104.885208559524784,18.751238256333206],[104.884473696733281,18.75127280608579],[104.883298068443608,18.751105816663234],[104.882361295046564,18.750895217613174],[104.88185621608902,18.750719889034841],[104.881222658201153,18.750378217763181],[104.880733536988572,18.749913836278541],[104.88016485946396,18.749814475518473],[104.879744019383537,18.75007100517367],[104.879587724485404,18.750272166531452],[104.879495745954642,18.750447117638675],[104.879624168457084,18.750692214753915],[104.879862810768685,18.750946133097582],[104.88021167959684,18.75120012173857],[104.880422791658674,18.751419019672028],[104.880477713679596,18.751690320740607],[104.880257119497145,18.751891441531185],[104.880036475330613,18.752162566139958],[104.879870863272046,18.752547482507392],[104.879503211234336,18.752871015089724],[104.879062272530788,18.752914483136106],[104.878373335535514,18.752940288048702],[104.877500712035996,18.752930968183747],[104.876572987927759,18.752904106878404],[104.875847487518968,18.75268486399926],[104.875266281923288,18.752341197132395],[104.873506855879143,18.751045116846644],[104.873010372758671,18.751046613776122],[104.872789829630833,18.751168971147465],[104.872734519993259,18.751431448938476],[104.872688303832078,18.751816440075963],[104.87247675439562,18.752192568050528],[104.872054101111956,18.752349788706258],[104.871760243050161,18.752244581361936],[104.871714652553933,18.751798273965793],[104.871652735344455,18.751359404182804],[104.871623287012852,18.751150673330439],[104.871577803040921,18.750564357704388],[104.871422160654561,18.749890461220541],[104.8708624628851,18.749085028414253],[104.869779327829733,18.748121721075101],[104.868255373637965,18.747079342958884],[104.867337155588302,18.746684921032742],[104.866471069596628,18.746683115740804],[104.864800404543814,18.746114481184524],[104.864407422153491,18.746236544858814],[104.864196008407788,18.746428902904299],[104.864048687663285,18.746875072222483],[104.863864533880189,18.747434971297714],[104.863652914288494,18.747881093457266],[104.863331161259978,18.748213378265191],[104.862991318690618,18.748195628716587],[104.862605854040666,18.747801572967646],[104.86221712596496,18.747193422024093],[104.862046261945054,18.746926109840707],[104.861706806860084,18.746435830463504],[104.861367089459847,18.746269319321868],[104.860944584129001,18.746251504820538],[104.860512929618139,18.746189929972541],[104.859961990453741,18.745979506155305],[104.859655567370169,18.745933177936632],[104.859089505951019,18.745847593517396],[104.858676238096621,18.745768527254306],[104.858410013714135,18.745593315727678],[104.85829952460206,18.745353570592911],[104.858208305166627,18.745155637265416],[104.85774124035423,18.743510185858625],[104.857594580164204,18.74315130314611],[104.857291562060638,18.74304606614648],[104.856914857734608,18.743185786806023],[104.856646987684982,18.743435767111219],[104.856427665958066,18.743640440559208],[104.856206994750693,18.743911537138782],[104.855875871535346,18.74445381439201],[104.855572286733036,18.745013613298443],[104.855305686595671,18.745284673306109],[104.855030042342207,18.745389466152783],[104.85455241402947,18.745389095553989],[104.854010692680191,18.74515240987952],[104.853581551577108,18.744928661428165],[104.852918152765881,18.744582771033077],[104.852174485883381,18.744205913012689],[104.851816511464406,18.743925613470523],[104.851789238715696,18.74360182284234],[104.851780252168865,18.743374302344733],[104.851651829591873,18.743181689273015],[104.851348838159652,18.743050191150623],[104.850862154388224,18.742909795744271],[104.850283451602238,18.742961836816001],[104.849864522626675,18.742973069389262],[104.849015886844612,18.742995820638548],[104.848455693817129,18.742890361730414],[104.847840422752199,18.74274985432438],[104.847188467793757,18.742548061355354],[104.846747611334777,18.742521449364034],[104.846481103955966,18.742678740209112],[104.846278796193204,18.742941089568777],[104.846159137296979,18.74322100767683],[104.846048369627894,18.743824701979253],[104.845973714716976,18.745119716311603],[104.8458356119624,18.745478373552295],[104.845449755585989,18.745565560403978],[104.845174256459302,18.745504079109512],[104.845082660233558,18.745223986965161],[104.845051526656647,18.74483397051387],[104.845037253408719,18.744655166149531],[104.844899764311918,18.744340033843436],[104.844624475482078,18.744051038615421],[104.844294053120777,18.743788248655573],[104.84368798352557,18.743630234244602],[104.843148692640654,18.743231623746908],[104.842642070146383,18.742351783025374],[104.842311784120099,18.741948981467129],[104.841944898265965,18.741397389690665],[104.841440298323732,18.740784426977598],[104.841036506366294,18.740416562917858],[104.84065115974974,18.739969959058609],[104.840145256556497,18.739743111687758],[104.839595346888188,18.739496529543377],[104.838998614556701,18.739198499775423],[104.838613101531237,18.73893565238096],[104.838310252808114,18.73867287560995],[104.838337212950364,18.7384032245632],[104.838356617943106,18.738209138358979],[104.838347791133415,18.737832858578322],[104.839239787518892,18.736696059553388],[104.839644623681806,18.735943862245378],[104.839755268444904,18.73548893004422],[104.839626997571145,18.735156300521989],[104.839167999433712,18.73491089229147],[104.838720808960232,18.734935568412627],[104.83838726797724,18.734953972616132],[104.837927905034874,18.735093583836893],[104.83652212319862,18.735652394787653],[104.834601676397753,18.736534510200723],[104.834215766504855,18.736691678147803],[104.833701278821891,18.736839980610302],[104.8333430159052,18.73690091563838],[104.832865541044924,18.736769232273733],[104.832526044053949,18.736427658818961],[104.83242528884989,18.736147552188275],[104.832369077499052,18.735932476044407],[104.832306337394641,18.735692418894363],[104.832067770588097,18.73545594115005],[104.831737358445878,18.735219380582741],[104.83142555942355,18.734737821748421],[104.830875199025456,18.73401978311291],[104.830488012957403,18.733884791506082],[104.830195779513559,18.733782904259964],[104.829525484986362,18.733607284871361],[104.828202959569296,18.733562323549815],[104.827321433449413,18.733377751850512],[104.826770479499729,18.733263486250401],[104.826669646405222,18.733070881594177],[104.826816767507324,18.732904757918714],[104.827080614838806,18.732613629590471],[104.826964654395809,18.731986090407439],[104.826717031790977,18.731635840751313],[104.826432511839243,18.731443065878189],[104.825973113011386,18.731617649854986],[104.825569842795787,18.731846604928549],[104.825311449360029,18.731993305995253],[104.824760023171507,18.732342811410327],[104.824465868036697,18.732587550334564],[104.824392075987831,18.732893749179784],[104.82429062165555,18.733304928205147],[104.824097557131694,18.733488507742884],[104.82361063319901,18.733628057912004],[104.82299482450712,18.734056251963647],[104.822277918557674,18.734545601605195],[104.821542630133806,18.735043681437947],[104.820917635744578,18.735463109250208],[104.820421528235826,18.73559389174024],[104.819925716675669,18.735444656844287],[104.81977924549679,18.734989489332225],[104.819756410133095,18.734562353982334],[104.819743221793132,18.734315665254055],[104.819918618205975,18.733475784830816],[104.820222595213494,18.732636027646283],[104.820159053940856,18.731927174992091],[104.819929944093403,18.731454427034375],[104.819599631056477,18.731147841102096],[104.819140533394233,18.731033641581792],[104.818915955034925,18.730920543764462],[104.818635663925548,18.730779388379009],[104.818665678763267,18.73044038771236],[104.81868214568712,18.73025440248092],[104.819077537307138,18.729817259093153],[104.819610403235799,18.729651513310245],[104.820014632571869,18.729538145518312],[104.820860038820001,18.729110180750276],[104.82138395560402,18.728716907857539],[104.821696788858546,18.728174673816085],[104.821734406484552,18.727334659811689],[104.821698321314187,18.726713338575181],[104.82146937024838,18.726091833565082],[104.821295745949826,18.725260368535359],[104.821057798399963,18.724463843936228],[104.82065490146968,18.72332589076267],[104.820315871840606,18.722590521965898],[104.8201325452617,18.722257826157495],[104.819949274976125,18.721872627075363],[104.819913030536455,18.721408814472536],[104.819692998509851,18.721049831348779],[104.819252714065982,18.720541876687228],[104.818839741258913,18.72026146103952],[104.818594403307728,18.720168321118333],[104.81816959619087,18.720007046653738],[104.817132008780732,18.719839776858475],[104.816562587239773,18.719865471804273],[104.816332870336012,18.719979003572156],[104.816185750366998,18.720145119249665],[104.816231357281097,18.720433931270723],[104.816304364567827,18.72086277851265],[104.816248987522101,18.721116489377902],[104.816083158164702,18.721597605408991],[104.815687256659331,18.722516021134478],[104.8154571557846,18.722979572229978],[104.815162880083349,18.723338053456239],[104.814813880465167,18.723346459301258],[104.814538524187668,18.723197428053155],[104.814391944016094,18.722864763103988],[104.814236766377235,18.722603907733234],[104.814162766629281,18.722479512991107],[104.813896605797666,18.722321739401373],[104.813419283290472,18.722102501604681],[104.813175274136398,18.722054145586064],[104.812886733654025,18.721996964216778],[104.812336019708056,18.721707646188392],[104.811830984846807,18.721637135451914],[104.811224898907483,18.721592773124669],[104.810591261750929,18.721548380986672],[104.810049570924093,18.721407824231999],[104.809416405437091,18.720943403636088],[104.809014952938369,18.720560073387109],[104.808645791702475,18.720207574434678],[104.808159821279361,18.719524536843302],[104.807940182135724,18.718841771157958],[104.807840080656234,18.71802786997057],[104.807822276783014,18.717529071917994],[104.808181365866886,18.716706890647963],[104.808678066848131,18.716007356481899],[104.808935707424666,18.71556134256867],[104.808963700126569,18.715167597463402],[104.808798662526684,18.714931164960792],[104.808477427432123,18.714764576953879],[104.808016384266097,18.714735092305489],[104.807504047515934,18.714702325986263],[104.806760344695434,18.714561552207368],[104.806282834069265,18.714534807653191],[104.805732065662525,18.714324224934177],[104.805328413977719,18.713956284023688],[104.805188171494009,18.713728949335319],[104.80502592200726,18.713465940153078],[104.80468666810097,18.713001809053956],[104.804277121206198,18.712872075722618],[104.803878741918851,18.712817204326388],[104.803153265367825,18.712807693248937],[104.802611365056279,18.712877127517757],[104.802069372715295,18.713025314841307],[104.801545746232534,18.7131735200355],[104.800709924197321,18.713286389949815],[104.800122063306702,18.713390770213433],[104.799479049695279,18.713538842240911],[104.799157588954827,18.713573500119001],[104.798376988416223,18.713581412493372],[104.797963745181761,18.71357221694603],[104.79759646069796,18.713528068038176],[104.79744978652576,18.713309146517648],[104.797490284150598,18.713109705355329],[104.797542161884266,18.712854219145783],[104.797680474292477,18.712381840248309],[104.797919968731193,18.711769561951446],[104.797939104192665,18.711122043772846],[104.797801989151097,18.710588113888942],[104.797600623609171,18.710027862939764],[104.797380684650193,18.709642602195757],[104.797151156774788,18.709598601323247],[104.796976853450843,18.709449653681045],[104.79670167130385,18.709186839660259],[104.796472175616898,18.709116586417878],[104.796102788284529,18.709028459506335],[104.795728779776965,18.708748255718501],[104.795701608426469,18.708433207167314],[104.795803147781299,18.707995791473671],[104.796207466588683,18.707777468271448],[104.796740264007099,18.707629287749249],[104.797181323505825,18.707402251724634],[104.797374709819593,18.706947433380687],[104.797430443338868,18.706413711362448],[104.797372066008094,18.705311081572564],[104.797303537564716,18.705022240006752],[104.797152446333328,18.704663304859135],[104.796932316893859,18.704444303311345],[104.796661744730471,18.704172743622838],[104.796425757798076,18.704101794301014],[104.796165930705286,18.704119702077822],[104.795734281812898,18.704162984972058],[104.795495526301892,18.704162724710553],[104.795247587890799,18.704162454117206],[104.795008848191543,18.704149067458292],[104.794903360758781,18.704052696268867],[104.794848468978586,18.703882000880395],[104.794863669899001,18.703681943859017],[104.794931489131017,18.703571447871955],[104.795234681766928,18.703440521265929],[104.795694161031861,18.703161005491538],[104.796061936211657,18.70277638247277],[104.796080773461966,18.702382629024441],[104.795741534399568,18.701944733187609],[104.795393135344639,18.701489325671741],[104.795035113039205,18.701401429357858],[104.79487769601954,18.701493132712891],[104.79475024723439,18.701567377888907],[104.794437663539469,18.701873304106698],[104.793858322091211,18.702555209553058],[104.793370762044901,18.70327221640596],[104.792892284966086,18.704067986696629],[104.792634641598426,18.704496477839971],[104.792303480001564,18.704968639811472],[104.791945152630433,18.705125752022095],[104.791651373065761,18.705064172092502],[104.791183353848695,18.704809886118326],[104.790709047384681,18.704336411780538],[104.790464915529611,18.704092706738834],[104.790394989501777,18.70369768939069],[104.790459958862584,18.703137728175477],[104.790699627159867,18.702394200861001],[104.791150239369557,18.701860920954537],[104.791720149566473,18.701389026171054],[104.792308656860271,18.700724638501264],[104.792446973539171,18.700252262899621],[104.792181081276709,18.699919448193292],[104.791658032882523,18.699621349727355],[104.791405273907728,18.699614315324641],[104.790675520878523,18.699594004035749],[104.790326439934589,18.69970737098831],[104.789876187242839,18.699951881928886],[104.789581411819114,18.700704097087105],[104.789489032984577,18.701150270464591],[104.789405879704759,18.701561452012736],[104.789175714819862,18.702042472509021],[104.788863207132337,18.70227838517852],[104.788293993302304,18.702181487569725],[104.787908632080175,18.701927286759446],[104.787402328483537,18.701592969908187],[104.787147456808853,18.701130126148339],[104.787138820987664,18.700692589872116],[104.787047836448622,18.700018695767106],[104.787066803570582,18.699537438127052],[104.787260021806503,18.699231388829507],[104.787756200277826,18.698978185616969],[104.788481812038597,18.698830246361055],[104.788812711620196,18.698568103304044],[104.788923336604469,18.698218206537668],[104.788868653335214,18.697885624735026],[104.788749974652248,18.697325456966947],[104.788667722734431,18.697010345094043],[104.78837412146369,18.696817502303304],[104.788089550938963,18.696747176731922],[104.787902234205859,18.696822448416803],[104.787611820896672,18.696939148106335],[104.787326922712211,18.697131337004684],[104.787032841356748,18.69732351503346],[104.786674689795092,18.697349359610442],[104.78630752028036,18.697243935241225],[104.785829962932723,18.697295893718632],[104.785324846685612,18.697356569967184],[104.784681903583262,18.69748709092514],[104.784029577246457,18.69777510842243],[104.783606924106763,18.697975883454035],[104.783202668543126,18.698150427196992],[104.782623719730765,18.698499778254693],[104.782219428364755,18.698700571394596],[104.781879503996819,18.69883143429168],[104.781705169027973,18.698726225102774],[104.78176998545436,18.698306275132918],[104.781875272513744,18.698078209739435],[104.782183996134052,18.69768546879768],[104.782248687896967,18.697361774293206],[104.782166772567194,18.696792894671933],[104.781983469805397,18.696521415229572],[104.781892339667849,18.695978776333273],[104.782214340931318,18.695497871228309],[104.782646082589849,18.695367114033989],[104.783444886606304,18.695420541168485],[104.783904252118148,18.695228559224152],[104.78406990164504,18.694939982384678],[104.784061118576133,18.694624953057939],[104.783868632700347,18.694353464817461],[104.783538567795659,18.693959310188355],[104.783098349932459,18.693538776037663],[104.782777504157309,18.693118379120747],[104.782585156022165,18.692741883293678],[104.782567394522331,18.692269333807101],[104.782696470658948,18.691858208190013],[104.782696905923444,18.691516937789387],[104.782403477370082,18.691201578377203],[104.782054945625788,18.690894905036817],[104.781478818412836,18.690703949326664],[104.780725447039359,18.690441981663415],[104.779778556640721,18.690279709260352],[104.779365484700108,18.690182968049761],[104.77887897886653,18.690068638328203],[104.778464964857477,18.689779931630383],[104.77815436497022,18.689472746488374],[104.777925394034853,18.689026198272689],[104.777779074181723,18.688570997137731],[104.777421351289874,18.688281805416782],[104.777210610597464,18.687940284372864],[104.777247670372759,18.687686562797385],[104.777477506150461,18.687468072070022],[104.77794575361699,18.687494878397271],[104.778551515151989,18.687688106119676],[104.779322463730821,18.687951530547487],[104.780056765641078,18.688153655101992],[104.780726930135486,18.688250695392849],[104.781314670389392,18.688181377015557],[104.781599649892385,18.68791919277475],[104.78171946448802,18.687569310626866],[104.781628238747288,18.68710542588396],[104.781307936307314,18.68627375155064],[104.781235210937865,18.685704881638465],[104.781061451741365,18.685162145444863],[104.78068580570303,18.684531667824135],[104.780108004721114,18.684023460266854],[104.77987891149688,18.683673170017482],[104.77959464937895,18.683384068497915],[104.77922766172837,18.683164873591011],[104.778970274214444,18.68319696337587],[104.778740948807354,18.68322555420988],[104.778437996039642,18.683190194632683],[104.778070691324544,18.683216012273768],[104.777896169386224,18.68326830906722],[104.777693987911121,18.683408078349753],[104.777436715412364,18.683547782084251],[104.777188761542845,18.683582490032663],[104.776692784729732,18.683704408105211],[104.776325467198021,18.683738972841621],[104.775884810230608,18.683685943888175],[104.775508518243598,18.683562986584935],[104.775059774895027,18.683238251476475],[104.774802226256142,18.683028357451459],[104.774159793424161,18.682808821978707],[104.773763193872611,18.682846995763246],[104.773351695588843,18.682886602686093],[104.772892538447394,18.682938550863444],[104.772552615342761,18.683086898384747],[104.771946455676712,18.683208670337411],[104.771643258300372,18.683357060818427],[104.771294092816504,18.683549147480182],[104.771036497598317,18.683925106514788],[104.77088921244345,18.684204943963248],[104.770778454060022,18.684633585030742],[104.770640125978446,18.685079693386871],[104.770474663949855,18.685219499664353],[104.770245129052213,18.685210468242907],[104.770061432683946,18.685253995928701],[104.769923728268083,18.685236326076058],[104.769841197801298,18.685157470048907],[104.769740445549715,18.684973585195721],[104.769698422355603,18.684799013460339],[104.769658270061754,18.684632213436377],[104.769548644090477,18.684220803631757],[104.769356157547847,18.683975552135156],[104.769034984260713,18.683835148552529],[104.768807842168357,18.683872327068393],[104.768557424136134,18.683913315041423],[104.768208599180568,18.683851630775546],[104.767807875414746,18.683644706974043],[104.767610443308669,18.683542757438751],[104.767640222674004,18.683194637682156],[104.767576606592598,18.682713279379605],[104.767613774890265,18.682389555525784],[104.767733769064364,18.681925925564229],[104.767927096759578,18.68154989156977],[104.767991868609087,18.681182449027048],[104.767946198584553,18.681007381792398],[104.767762756524178,18.680867146284253],[104.767432313287244,18.680796732822525],[104.767237639520559,18.680788596024321],[104.767000800715181,18.680778696576759],[104.766697747174746,18.680822072824682],[104.766256837054186,18.680961532874406],[104.765760788273298,18.681135925225746],[104.765191321418143,18.681283972807009],[104.764493479591394,18.681309350097031],[104.764199606172483,18.681352733812041],[104.764034239480253,18.681422530278176],[104.763786104317091,18.681588478347653],[104.763574974500855,18.681553210369358],[104.763428225709447,18.681439268488067],[104.763254762342086,18.681063515197696],[104.76324533381019,18.680905255156127],[104.763291618602722,18.680634046892951],[104.763393915788072,18.679697868372845],[104.763219763422811,18.67963959497548],[104.762957627179588,18.679815450172846],[104.762268862894615,18.679919585548642],[104.761644381107061,18.680015049491569],[104.761387088625156,18.68016348170999],[104.761212062390214,18.680574534325142],[104.761284914903683,18.681003403244951],[104.761568921425336,18.681450041547699],[104.761981350813912,18.681984347670646],[104.76243927674372,18.682816228651927],[104.7626039873618,18.68321896164754],[104.762603475516769,18.683586483427401],[104.762694781604935,18.683954121318102],[104.762859786077911,18.684146841629119],[104.762932802379936,18.684461953079047],[104.76287744362989,18.684654394866005],[104.762674907217203,18.685039162278429],[104.76212384949919,18.685143470956202],[104.761683120311801,18.685142911770384],[104.760116667477021,18.684627629691498],[104.759304568341548,18.684501144222402],[104.75830855739801,18.684238939247198],[104.757975514052347,18.683825587083575],[104.757516673802385,18.683649984167882],[104.757130864721006,18.68377199271421],[104.756873596116307,18.684225621999751],[104.756707253800442,18.684646497051368],[104.756669776941237,18.685171480233777],[104.75685293969525,18.685504237756263],[104.757054616623222,18.685732012718674],[104.757054167579227,18.686047031175153],[104.757127198830219,18.686344643684006],[104.757255396725995,18.686589824361501],[104.757291775526085,18.686834886207862],[104.757107787404806,18.687079662918531],[104.757052620803563,18.687132094666509],[104.757015343991455,18.687517069607839],[104.756556194866477,18.687551476573205],[104.756133798556945,18.687568429129385],[104.75546986897119,18.687265226992256],[104.755216957527921,18.686622178414893],[104.754814035106349,18.685869107021919],[104.754539334481919,18.685343716231092],[104.75422763060125,18.685010788189853],[104.753823781060163,18.684905252509541],[104.752822823735301,18.684981944532673],[104.752408506667607,18.685778443284352],[104.752077347789481,18.686198031312106],[104.75132361418477,18.686757067583162],[104.750386159403348,18.68736835957532],[104.748934247970269,18.688153969556829],[104.7484014587736,18.688310765288925],[104.748190056149014,18.688137586123794],[104.747759494568456,18.687784872053999],[104.747245848193572,18.687416658925798],[104.746769009861467,18.686995990943981],[104.74614518489129,18.686627626099291],[104.745704765756201,18.686417017232454],[104.745337541444371,18.686381517131672],[104.745138274993067,18.686620737048802],[104.745299662963504,18.687151511638081],[104.745629534161282,18.687606986220199],[104.745867821959763,18.687904826823001],[104.74581210347489,18.688324776348161],[104.745462742385556,18.688621820425851],[104.745078226954675,18.688713842749383],[104.744080269547126,18.688952669994496],[104.742375965339008,18.689685170702962],[104.74165923173058,18.690034205849905],[104.741144741266922,18.690226008071427],[104.740593174775711,18.690645271013601],[104.740096858725096,18.690959602656076],[104.739435342037368,18.691221200495672],[104.738822837664131,18.691228513547419],[104.738113297962173,18.691096852471947],[104.737746819597831,18.69057130970651],[104.737569914231301,18.690285046285773],[104.737251923354506,18.690380979172506],[104.737170937027869,18.690269146967154],[104.736818988552741,18.689783147093941],[104.736382510635835,18.689180417152048],[104.734432189810889,18.690034921485754],[104.734435107584247,18.688162714290968],[104.73259816417125,18.681368542781929],[104.732340380403031,18.680415052363269],[104.731944372825723,18.67851316440067],[104.731274678115199,18.675296755438897],[104.731068385282242,18.674305948164012],[104.730846847221684,18.673241906587776],[104.730782941907492,18.673110876439967],[104.730617896674389,18.67277247004883],[104.730570425024396,18.672675134581517],[104.730437651161807,18.672402895534447],[104.730215214532095,18.671946810132567],[104.728746985222443,18.668936276653771],[104.730236620140658,18.664497238864975],[104.730612687484069,18.66337653737931],[104.73086358981493,18.662628825688039],[104.73142879512416,18.661421575799821],[104.733279171608061,18.657469134760483],[104.733604806517633,18.655684737293381],[104.732250203494289,18.654531983918865],[104.729847353466752,18.65421959022558],[104.727939591637522,18.655145712154528],[104.727359647361254,18.655561748310895],[104.726695842788033,18.656164068116606],[104.726070207770263,18.656798075716196],[104.7248037851719,18.658268285946328],[104.723750848904032,18.659086940372063],[104.722621829242684,18.659493115387718],[104.722385096115261,18.659661097189908],[104.722232709964828,18.659893600468937],[104.722102899869967,18.660273003368896],[104.722019031063653,18.660643436210876],[104.722012781860229,18.660881294416004],[104.721973224542793,18.66238656973001],[104.7218893286352,18.662773946681629],[104.721729182189506,18.663038072497848],[104.721515477698858,18.663254666041855],[104.721195072238416,18.663486919170676],[104.720660830158877,18.66365445864324],[104.719745412312037,18.663883562188428],[104.715288057945628,18.665101746823062],[104.714435202599873,18.665203018067579],[104.714023129271922,18.665136864394821],[104.713092428770395,18.664576221974858],[104.712520280079985,18.664547103676906],[104.712192192984517,18.664756732881202],[104.711490259948974,18.665075376018624],[104.710483129020545,18.665207135640046],[104.708308587674765,18.665278334057881],[104.70695831223577,18.665755243584545],[104.706355470203448,18.6658232161674],[104.703897070766971,18.666900524107685],[104.702249122870924,18.667624344439268],[104.700709729449983,18.667946136177541],[104.699580311315941,18.668010987491648],[104.69909109373971,18.668228829460148],[104.698687858313292,18.66846484415197],[104.698428414612152,18.668552545498653],[104.698161444889834,18.668540819222951],[104.696894786327334,18.668121903921477],[104.696383781875639,18.668031829173469],[104.695613017805513,18.668039619434236],[104.692401145740405,18.668519047441688],[104.691599932480912,18.668812596783866],[104.68960853944651,18.668846597317653],[104.688670132397959,18.669133128836489],[104.687518045452933,18.669433984957845],[104.686884967321831,18.669981986370185],[104.686030266299994,18.670508150141067],[104.685763297547936,18.670977677792784],[104.68577865364179,18.671488346395702],[104.686152513177177,18.672356614994516],[104.686419424305683,18.672563804589903],[104.686777917092186,18.673088602654214],[104.686892326348953,18.673881874111402],[104.687022245408158,18.674137411223651],[104.687388513464001,18.674465646880016],[104.687760910540689,18.675078849569459],[104.687983450879301,18.675498091551525],[104.688281051719017,18.675782151617202],[104.688815004541709,18.675973964730222],[104.689562838941455,18.676045248305915],[104.689860227661754,18.676285244008923],[104.690081586171274,18.676943121730645],[104.689974891251026,18.677438901729605],[104.690348647264571,18.678217910708877],[104.690310546436862,18.67896347752831],[104.690814210711707,18.680666829522092],[104.690581407005993,18.682719189039201],[104.689890842608548,18.683241120593912],[104.689829733433157,18.683436463908873],[104.690074790365074,18.683941864286112],[104.690773409492181,18.684832811095546],[104.691309518266408,18.685516498783365],[104.691261921024378,18.68643264151271],[104.690985872906737,18.687000447712862],[104.690298531645396,18.687043374203451],[104.68924589744644,18.686211272944998],[104.688697530733066,18.685293015221475],[104.687507637584787,18.684330755166549],[104.686957524524416,18.684372770088579],[104.686864986783235,18.684896814751554],[104.687459139724282,18.685728164366942],[104.687274331015573,18.686470099788568],[104.686769343309109,18.68694939676946],[104.685989810590186,18.68716726429005],[104.684718150922265,18.686832986207126],[104.683929707250741,18.685940295289324],[104.683515802834023,18.686681837142977],[104.682965027981552,18.687074058723834],[104.682024842869168,18.686982087265246],[104.681689223938832,18.687058340190131],[104.680992897832937,18.687077957436127],[104.68081935782341,18.687082846448362],[104.680353939089386,18.68715322746429],[104.679697898310536,18.687413077417911],[104.679468848050647,18.687710941598699],[104.678820411129138,18.689437205494002],[104.678347372964936,18.689301956765807],[104.677981199193027,18.688605408810339],[104.67760719810579,18.688286177904743],[104.677271669619415,18.688309325507181],[104.677057986222565,18.68846938189893],[104.676973976875544,18.688698573306255],[104.676897659192875,18.689247496257064],[104.676729977064909,18.689373737625132],[104.676363620390191,18.689399089919274],[104.676111883682566,18.689307147070817],[104.675791460835541,18.689023030445007],[104.675661646677327,18.688715516646511],[104.675608244185554,18.6882793433942],[104.675463400252085,18.687926614100139],[104.675211656435636,18.687685545160644],[104.674944637212164,18.687528047936588],[104.674669834055891,18.687413466733886],[104.674082508948672,18.687380814950156],[104.673708661241022,18.687451340271434],[104.672487931798443,18.687922573792846],[104.671541801810847,18.688611190822989],[104.670534726032884,18.68924207951121],[104.670183817015996,18.689403014862002],[104.669558210232324,18.689392878016353],[104.66928331605159,18.689324607860762],[104.668947660067715,18.689108235041083],[104.668718815083409,18.688982430720948],[104.668284114361512,18.688950031960935],[104.667910197151485,18.689053305969754],[104.667650859168802,18.689215528347759],[104.667324123208161,18.68951829257951],[104.66701743877077,18.689867396398977],[104.666658803387833,18.69003622130786],[104.66622794779019,18.691064643767131],[104.66314157202298,18.690318021018317],[104.662783081777661,18.690411144813773],[104.66263802469372,18.690628924221265],[104.662653212232655,18.690892181017624],[104.662813608997752,18.691159086238205],[104.662859245031413,18.691460808634996],[104.662577054710979,18.691634280094632],[104.661600453111518,18.691968055136961],[104.660679924278782,18.691970911317242],[104.660051616737135,18.691676039836896],[104.659273396296527,18.691655424390134],[104.658830873188109,18.691826337612486],[104.658617189098521,18.691975077126948],[104.658523907024716,18.69297246426979],[104.658430982957029,18.693496494282254],[104.657697151062195,18.693800187816649],[104.657101762305103,18.693494069240394],[104.656953933076991,18.693169565963426],[104.656251787106939,18.692478853281731],[104.655947043424291,18.692200666217925],[104.655527270262795,18.692257510392828],[104.655153551171551,18.692695163265135],[104.654817719928815,18.692717140246959],[104.654627180454966,18.692557497397157],[104.654337160095722,18.692204485174656],[104.653864058119396,18.691668114666665],[104.653482595068354,18.691396273072236],[104.652935304209251,18.691345555009832],[104.651788453871191,18.691736578190188],[104.6500921908913,18.691951461970984],[104.64844210752247,18.691905447217724],[104.647066807777733,18.692120902954475],[104.646150236121827,18.692075116840048],[104.645601084430737,18.691638002333384],[104.645051210674552,18.691548841953633],[104.644315698119911,18.692508856897202],[104.643718902319549,18.693031919348194],[104.643076806718938,18.693248742129917],[104.642572679912405,18.693247782251532],[104.64238996247019,18.692898341926014],[104.642061229622215,18.691233614853783],[104.641786547591437,18.690926931805876],[104.641542383615885,18.690766041908617],[104.641290659761893,18.690676312072284],[104.640466491240957,18.690665696612285],[104.640285191443482,18.691190677317493],[104.640832665907809,18.692415229596069],[104.640327512614533,18.69276335018446],[104.639411674984714,18.692368444127418],[104.638768836024624,18.692935463387204],[104.637623259788981,18.692845134997167],[104.636707430130784,18.692450217651018],[104.635103000804747,18.692120608187061],[104.635011547097434,18.692338469913462],[104.635072367543259,18.692863916135117],[104.63597018507194,18.694196489265632],[104.635740249587002,18.694589192375535],[104.634182585842595,18.694280000773613],[104.633585831549738,18.694629053912728],[104.633585080660211,18.694978140584926],[104.634042536672894,18.695459170373415],[104.634133175868428,18.6958965541933],[104.633673748020655,18.696331736505321],[104.632848936278378,18.696330123752009],[104.632161913055313,18.696067810267728],[104.631979873805093,18.695412204959691],[104.632035604471398,18.694479091218881],[104.632096998205981,18.69319024485997],[104.632356348347997,18.691393344804094],[104.63217319354618,18.691256286712083],[104.631959604545429,18.691212938097287],[104.631303474173635,18.691338183075825],[104.630822932209753,18.691534940692598],[104.630723748172912,18.691764080536363],[104.630548075939757,18.692822298168132],[104.630372693453523,18.693200411933439],[104.630181952437482,18.693554772727275],[104.629960772223981,18.693730576078753],[104.629693731989761,18.693871267035192],[104.629167320197851,18.693898470329898],[104.628999350071652,18.693728677053532],[104.628875568749706,18.693458942150016],[104.628373756642901,18.692484731504504],[104.62791924377747,18.692061028141907],[104.627770952141674,18.691937873677137],[104.627526945543721,18.691845881320994],[104.627092020200138,18.691916188401205],[104.62680197142231,18.692008251196008],[104.626702829914905,18.692213666401265],[104.626626587810065,18.692788550244053],[104.626466243915829,18.693062755115633],[104.626077099501728,18.693337635434755],[104.625688107152868,18.693543601779719],[104.625031185463257,18.693669027254327],[104.624352987369718,18.693798512786483],[104.62317510251431,18.694433020587883],[104.6224474194793,18.694825004577613],[104.622125383481631,18.69530449412623],[104.621446098959879,18.695703051715856],[104.62120714685949,18.696001947177379],[104.62111450042535,18.696481894356463],[104.621480434481711,18.696788793054324],[104.6228111285414,18.696136228066358],[104.623681494758031,18.696443004729915],[104.624046468424538,18.697187101300138],[104.62404473279058,18.697973392068839],[104.623217592428531,18.698889078317496],[104.622439673958596,18.698319255379488],[104.621705846338386,18.69844882501657],[104.621475191896096,18.699147666370632],[104.621243663615715,18.700238522787227],[104.620784870778834,18.70036864394833],[104.620234986322032,18.700411592337932],[104.619456283664633,18.700060922643956],[104.618633021240626,18.69935994554179],[104.617791487983425,18.698880357777217],[104.617356577012998,18.698803777395721],[104.616776818062206,18.698820669232902],[104.615952933604291,18.698929698925305],[104.614747227912773,18.699206272101797],[104.614396314767831,18.699206677011013],[104.61386991882101,18.699085842895737],[104.613495705936032,18.698874556063203],[104.613007660504493,18.698603928144529],[104.612672172623036,18.698468798098503],[104.612351628082195,18.698407130575717],[104.611942377201146,18.69864691777537],[104.611293452324404,18.699550018400092],[104.610838027070187,18.700479315763868],[104.610333183947063,18.700784423186199],[104.60996746119865,18.700390518194986],[104.609780480296351,18.699599315492147],[104.609559135647245,18.699446339947805],[104.609398876436813,18.699281066205135],[104.609147162389249,18.698931454571589],[104.608274386058611,18.699163488678984],[104.608183412781443,18.69877015034222],[104.608323277521492,18.698266582831952],[104.608216515084678,18.697779444228793],[104.607636252348854,18.697502577992584],[104.607223093452788,18.697763807849434],[104.60699248259094,18.698418571281724],[104.606487840676181,18.698635552012295],[104.605891824469921,18.698634300463016],[104.605251080518457,18.69823980648469],[104.603982105063565,18.69678768398429],[104.603055554629535,18.696313496324464],[104.602735701474998,18.695832682037281],[104.602776411026554,18.695151543533903],[104.602547616996205,18.694513888007229],[104.602326544840437,18.693997132858986],[104.6021128171013,18.693635165493472],[104.601838200220229,18.693331812603532],[104.601571181292314,18.693073668113513],[104.601243142646595,18.692801835031531],[104.600991276844326,18.692529033693322],[104.600800380530998,18.692164853961224],[104.600602094520951,18.691665089360061],[104.600319765520226,18.691239707439017],[104.600052674860436,18.690890051043812],[104.599740098152296,18.690724446214894],[104.599396706150785,18.690558771459969],[104.598851919534013,18.690713509585063],[104.598666105361147,18.691717445797945],[104.598298985436401,18.691935828681576],[104.597840198696701,18.692065893920358],[104.597290866680765,18.691758558010939],[104.596878861715041,18.690153453458841],[104.596535459868321,18.689366420632364],[104.596306616589075,18.68913885165993],[104.596077660329243,18.688957602741521],[104.595871903005076,18.688866781593706],[104.595429250554716,18.688944906639399],[104.594866633728699,18.689744675435215],[104.594773305762772,18.690355657280769],[104.594954574908328,18.691273391332413],[104.594632988168996,18.691534794860047],[104.594129185264364,18.691402655617004],[104.593717688793191,18.690964557558317],[104.593315846691425,18.690331038842217],[104.593308694023975,18.68947920667388],[104.593080543656569,18.689085565679065],[104.592576751142204,18.688953422397695],[104.59152207402353,18.689169168029689],[104.589760511886695,18.689778767189178],[104.589455344118988,18.690234510407844],[104.589546436653734,18.691173518432375],[104.589270252256142,18.691654178588003],[104.588812305064067,18.691434006984053],[104.588860873246873,18.690342793743969],[104.589321369014399,18.68938240085463],[104.589322948188723,18.688727160090831],[104.588957717942179,18.688159234644015],[104.58804287742781,18.687413867292531],[104.587265761320111,18.686582935809664],[104.586533236030007,18.686188175168702],[104.585982986886719,18.686273952574084],[104.58593650124547,18.686622936870304],[104.585340530475122,18.686621620827243],[104.584883214276616,18.686271522853325],[104.584703066885481,18.684917702760945],[104.58479709011047,18.683912451752501],[104.584388508632529,18.682296032888463],[104.584115606414926,18.681552063595767],[104.583794981950732,18.681420304717019],[104.583427333245936,18.681856694620244],[104.583287692107177,18.68272966951923],[104.582462122276965,18.682947001312112],[104.582233900461802,18.682596275024071],[104.582326970640295,18.681985299035492],[104.582053246659896,18.681460493565769],[104.581131564556514,18.681234751494401],[104.580696550052622,18.680742347913768],[104.580162631810254,18.680100596610895],[104.579307538316016,18.679794784165178],[104.578942365046302,18.679225709997969],[104.578302323077239,18.678482038349077],[104.577202382315861,18.678566554749008],[104.576606872397917,18.678391233042767],[104.575738616001601,18.677427873114617],[104.574043319223208,18.677161937849931],[104.573265226992945,18.676767022869885],[104.571681773405032,18.675587564962974],[104.571099542789142,18.675148162820921],[104.569560163304658,18.673919550107346],[104.569057537757843,18.673350141990966],[104.568779161085146,18.672928113729608],[104.568188239161614,18.672823950715031],[104.567932505673653,18.673174706765327],[104.56809349990489,18.673960241172903],[104.567405453855727,18.674176695746915],[104.566856198629651,18.674000320322701],[104.566719412743964,18.67290303687215],[104.566551479334322,18.672752394108283],[104.566464369841299,18.672725715869621],[104.566261594558171,18.672663607986891],[104.565841809640816,18.672617447017807],[104.565605445474731,18.672573970806596],[104.564797063650502,18.672685069484135],[104.564383118240059,18.67325236626645],[104.563787828799576,18.67311993438997],[104.563468242737244,18.672594996039876],[104.563385038065761,18.671758803075338],[104.563606351684911,18.671545799669747],[104.563957262463589,18.671407656977593],[104.56399545436831,18.671074475168439],[104.563865792209754,18.6709069730423],[104.563469199017632,18.670832621220068],[104.562690892332554,18.670773192526752],[104.561822315208303,18.671018579128862],[104.561178627612861,18.671847428541607],[104.560397779618143,18.672543774994701],[104.559893945480539,18.672455605991953],[104.559804409649303,18.671669101141969],[104.559211661816207,18.671358166311691],[104.558891346628812,18.67146586940315],[104.558566600382647,18.671797246805177],[104.557518234354148,18.671770818268978],[104.556037744159539,18.671671532153677],[104.555724646439131,18.671965651197397],[104.555748047180458,18.672537350137468],[104.555427469975427,18.672857432747552],[104.555114696094421,18.673026152184587],[104.554595845344522,18.673128858406169],[104.554115312138194,18.673309603254623],[104.553871195056757,18.673513505015507],[104.553726063735354,18.673711994943563],[104.553680306039823,18.673985279092168],[104.553771971281094,18.675307277967764],[104.554015932424861,18.677204672667479],[104.554115142026049,18.677568682573671],[104.554245059798205,18.677749746701789],[104.554466327729017,18.677900525071525],[104.554756050635106,18.678051467373219],[104.554946792080244,18.678204434031223],[104.555046064031771,18.678432873298497],[104.555106367292566,18.678997790661924],[104.55522917427399,18.680148236599333],[104.555389376352778,18.680876160862177],[104.555801358582215,18.681648740179384],[104.555889520543673,18.682173040452135],[104.555930937167275,18.68298551523441],[104.555808956107356,18.68339644716038],[104.555641024948855,18.683698818693195],[104.555427428733083,18.68389827358293],[104.55517574987195,18.683928179687832],[104.554534830133463,18.683779797412097],[104.554199104742665,18.683764312013828],[104.553817717381776,18.683870727394805],[104.553321796669707,18.684145203346304],[104.552795238916403,18.684573245247599],[104.552261286183551,18.685334537540093],[104.552314507804496,18.685606929143695],[104.552459639183738,18.685863723855967],[104.553504959246084,18.687079541876159],[104.553611661305311,18.687413063496795],[104.553622171451465,18.68768363231349],[104.553550698073323,18.688399172203642],[104.553214916533975,18.689644462340411],[104.552635031273198,18.691075573594635],[104.552831771022881,18.691657852360802],[104.553791890982083,18.69249048674628],[104.554111023632046,18.693189416494068],[104.554291389786542,18.694369282358146],[104.554427302241137,18.694981913710215],[104.554962190429706,18.695685875063859],[104.555595366483871,18.695410593019876],[104.556014856860259,18.694908859003753],[104.55646502848812,18.694573265465294],[104.557334958412071,18.694085018019425],[104.557685840585705,18.693978522248308],[104.558547864216337,18.69402235259378],[104.559183788457744,18.693882595012862],[104.559784776029218,18.693857843837755],[104.560028002650895,18.693881224005487],[104.560318096134523,18.694016342826121],[104.560562294691934,18.694366002527264],[104.560542583328797,18.694902821527545],[104.560501017023157,18.695141980990936],[104.56013381071125,18.695672949492796],[104.559664617880784,18.696285395479034],[104.55918902234454,18.69695776360378],[104.559000701588261,18.698836055242285],[104.558127230418819,18.699882386890522],[104.557025484452623,18.700490966183036],[104.555696891434906,18.701709059171588],[104.555416556729242,18.705050224236],[104.554577137361306,18.705976860963169],[104.55426444639059,18.706429135107133],[104.553623392512989,18.707320087731897],[104.553043663686523,18.708332064073101],[104.552448603630324,18.709985681809471],[104.551881480263418,18.711030962855798],[104.551777071808488,18.711186095538888],[104.551166740819525,18.71176531186757],[104.550075659882609,18.712564795502683],[104.54868712693002,18.71342117025111],[104.547649584847377,18.714253531736201],[104.546726389837417,18.714883942671907],[104.545322535228308,18.715692808251184],[104.544643607963096,18.716195011547029],[104.544193327830968,18.716431159111178],[104.54363647393339,18.716948343621006],[104.5432627342812,18.71737898285193],[104.542927253836751,18.718108915876478],[104.542553008624964,18.71896789184197],[104.542347013065353,18.719185425790965],[104.541615082020911,18.71955479792711],[104.540775465305956,18.719834556263244],[104.539251944806892,18.720212600043507],[104.538173635545718,18.720570383976391],[104.537654822372488,18.720822160581793],[104.536853813933192,18.721401983572989],[104.536533217470819,18.721682491566025],[104.536105967810755,18.722485791065864],[104.535762751059963,18.723559299507333],[104.535938171145958,18.725319827570296],[104.536699200988878,18.727782034130588],[104.537082740558844,18.728989714277901],[104.537349747931842,18.729562009416192],[104.537510042579555,18.730460528015502],[104.537532743837218,18.730832259978502],[104.537273320131305,18.73161225142173],[104.53666308606563,18.732764180179686],[104.535869167706309,18.733736496952559],[104.5348165720482,18.734938818844221],[104.533626499016265,18.735972934714436],[104.533275417541503,18.736331308496506],[104.532565875402383,18.736819833590467],[104.531911963184399,18.737097761138234],[104.531406164230731,18.737262041146817],[104.5309333256629,18.737373826446564],[104.53066267984471,18.737395802023883],[104.530055956770454,18.737445059183745],[104.529062306692992,18.737674791257867],[104.528278089101747,18.737908286765084],[104.527347509677838,18.738457240716233],[104.526958247971848,18.738787261195505],[104.526509692814813,18.739302810245057],[104.525905555782288,18.740067952114192],[104.525409592767801,18.741238205850216],[104.525249407908134,18.742123493114381],[104.525218615315708,18.742745885758861],[104.525333169828883,18.743550530485944],[104.525516438010911,18.743953170460468],[104.526012129394914,18.744477484454137],[104.526545814672673,18.744836760290202],[104.527263327193864,18.745272576529953],[104.527937733624199,18.745746189015673],[104.528377311949512,18.746054887824446],[104.529002783768661,18.746682807420179],[104.52940730317313,18.747088906963533],[104.52978891811145,18.747812881296213],[104.529987238689429,18.748246058832912],[104.530144471676692,18.748895027061856],[104.530193117626752,18.749268964198524],[104.530185645587508,18.750255182922277],[104.53016271639919,18.750720566137133],[104.528903943866752,18.750178528953196],[104.527827977982724,18.749892257591437],[104.527202558924827,18.749850010478248],[104.526279340242354,18.749966294864986],[104.524823135936373,18.750060590602395],[104.523845338846058,18.750188317835452],[104.523387569950017,18.750409703316709],[104.522889454294699,18.750858551677329],[104.522708724457104,18.751021406958451],[104.52199909216489,18.752036333805609],[104.521777850383458,18.752379200048992],[104.520908649075068,18.753559794301154],[104.520496069002377,18.754111150467779],[104.519435698933592,18.755015585589256],[104.517192632239144,18.756250231171428],[104.516139465907941,18.756903870194385],[104.514934271951986,18.757533383199451],[104.513003829480496,18.758490877605769],[104.512149460800885,18.7586682762844],[104.510203916047686,18.758685785485319],[104.508876417992937,18.75925393593122],[104.507446747151718,18.760823007779923],[104.506297383466077,18.762296222816641],[104.505282694849242,18.763251531721341],[104.504237692784457,18.763923196506866],[104.5026049222936,18.764635095298441],[104.491316375314213,18.766050987779249],[104.491835180197654,18.768049725271425],[104.49267299443899,18.770852296774198],[104.493544203622037,18.772709895819066],[104.494650314702326,18.774748625573679],[104.495176695311613,18.775419965662291],[104.495970345139597,18.775854787706113],[104.496489103683189,18.775999658395904],[104.497160430792803,18.776089584593663],[104.497618138476355,18.776325795669095],[104.497969298551382,18.776795564393478],[104.496069339854245,18.778561837276719],[104.495443930718636,18.779179228437279],[104.494719064022789,18.780434637505042],[104.494505532801355,18.780943555651284],[104.494383251432751,18.781579250719734],[104.493666266729974,18.782967981159203],[104.493627912058997,18.784591269495714],[104.493307433689594,18.785262574768723],[104.493155120183744,18.785625929063887],[104.493139868685489,18.786461870356309],[104.494329896538062,18.788131414372984],[104.494818083410294,18.789094116695217],[104.495024084768971,18.789621116392713],[104.495924553825475,18.7904538848125],[104.496443334665642,18.791404240646354],[104.496458509549996,18.792884197315061],[104.495649836022011,18.794081764540692],[104.494886957405413,18.794736062161245],[104.494238402772453,18.795337570280022],[104.493719654362465,18.795664909042323],[104.493040562832817,18.796162395748144],[104.492489269176147,18.796365375579771],[104.492037735993861,18.797417035287651],[104.491933804357856,18.798111935437728],[104.49162450812841,18.79977915016531],[104.49109866902721,18.801429448218105],[104.490827298409997,18.802226284876344],[104.489837276471278,18.803249351926524],[104.487932669735812,18.804516918103904],[104.487081076984509,18.805007527655906],[104.48580759979977,18.80521866794151],[104.483236438826864,18.804724663098352],[104.482207404731739,18.804908211178578],[104.48196538306405,18.805789838776725],[104.480527502979257,18.806611656147886],[104.480104123264596,18.808119750602245],[104.480611067433884,18.808662299231891],[104.482039400099239,18.809415261284784],[104.482308626225361,18.810889143251423],[104.482873804872384,18.811887108737885],[104.484187740607325,18.812431874068928],[104.485589468436444,18.813660341882048],[104.483936503813212,18.814361765149201],[104.484074911145584,18.81837935683804],[104.483318528445295,18.819381564989978],[104.482876064116482,18.825917806591889],[104.482687342121181,18.828705469801921],[104.482298142969398,18.830350488385996],[104.481771432460903,18.832576655742876],[104.481912870804734,18.835589950277363],[104.478728709024253,18.842037280377166],[104.477208103982079,18.84648062723673],[104.475392574440249,18.849983130324816],[104.473944754359678,18.852776132467604],[104.473497848358264,18.857506372451578],[104.473295411310872,18.859648946389996],[104.470756561510527,18.868309771659025],[104.470569357023109,18.86880020896167],[104.468555544700081,18.874075753467],[104.467907224065911,18.875774074241257],[104.461599796943474,18.884423929313726],[104.461581195351869,18.884983984983631],[104.461252339197046,18.894884292412339],[104.461465212034682,18.895539668570191],[104.462807192707132,18.899671128663542],[104.462740915752818,18.900103320231253],[104.462165760334813,18.903853816627446],[104.453965832786821,18.914590133129948],[104.447968306530896,18.923838140803483],[104.444033608222071,18.924729560448991],[104.438853135646724,18.925903072150739],[104.434245594455803,18.928872192862972],[104.431928249427045,18.930365415216372],[104.430353763271583,18.931556164502062],[104.43015063154634,18.94150927972467],[104.42927551356297,18.941852312608106],[104.429049800360417,18.941948885555711],[104.428517315089351,18.941828969867391],[104.428074747629125,18.941754177053436],[104.427723704698735,18.941906729870283],[104.427304098149946,18.942322285925982],[104.426296982644189,18.943212751988568],[104.425938356380769,18.94332574110431],[104.425404314264668,18.943440443701046],[104.424946689885871,18.94368755335659],[104.424107250608245,18.944750236899353],[104.423442863330934,18.945520738178967],[104.422795133860276,18.94628816901762],[104.422589216712041,18.946614004921514],[104.422573752205693,18.946968673663896],[104.422955355190524,18.947686080521542],[104.423184215696381,18.948198533772246],[104.423329160079788,18.949378370677184],[104.423664752455281,18.950013161556132],[104.423909107896293,18.950682691817722],[104.42391664537034,18.95116734514891],[104.423866122766427,18.951359013581417],[104.423852445104558,18.951410909302744],[104.423748839571871,18.951803960987572],[104.42334427355388,18.952582181615231],[104.422123808108935,18.954119259685825],[104.420685537307776,18.956922019532801],[104.419991631518485,18.958531897566708],[104.419641510946519,18.96029422316748],[104.418787610706076,18.96215551428303],[104.418939818851726,18.964145347888124],[104.419758641380184,18.967794504706976],[104.419804566644558,18.969242619757562],[104.419569905045222,18.97326605929344],[104.419246598567923,18.974903073269402],[104.417754690855105,18.977523750581934],[104.414627413119462,18.978413112040066],[104.413242731500063,18.980733595545889],[104.41305219986198,18.981225527869007],[104.412884413738226,18.982173920689348],[104.412280034827702,18.983344603423099],[104.410896255052009,18.985303576441417],[104.41016815691377,18.986950574290091],[104.408604210539238,18.989134888581862],[104.408367688675725,18.989780304275079],[104.40771142026891,18.99108410238868],[104.406662486243079,18.992016111406809],[104.405628640522451,18.992290693045746],[104.404483645755022,18.994098999139869],[104.404505763322334,18.995310079855816],[104.404633524812212,18.996618644136966],[104.405765980797668,18.9988499921682],[104.404958418584457,19.000184927866506],[104.403812598571037,19.00103978578607],[104.402988710525861,19.001202059468419],[104.402275449028409,19.001312722468128],[104.40184089181713,19.002029786340334],[104.401512627891151,19.00316065269077],[104.401832808973964,19.004291357002849],[104.401882435609934,19.005525113048805],[104.401178964270969,19.005882070888994],[104.400315586207952,19.005621709084533],[104.399400568999596,19.004694672097191],[104.398429679270507,19.00428032048497],[104.396489320949954,19.003144331985496],[104.393899632990284,19.002261504153683],[104.392657291129339,19.002205463343607],[104.39157342894795,19.003229899395027],[104.392215769836284,19.005482305979111],[104.392406521202304,19.006671340020151],[104.391681838868763,19.007138899819065],[104.390644158557649,19.006234010326082],[104.390158687290182,19.00607651726849],[104.389401522941952,19.006331581445373],[104.390042746331986,19.008233796446401],[104.390845344518638,19.010344396274068],[104.391165917036176,19.011269516544711],[104.392082229584105,19.011837366143862],[104.393131259660009,19.012326567215016],[104.395159409504558,19.012362583768503],[104.395751801346321,19.012929353894791],[104.395694977832235,19.013699597620736],[104.394938164216654,19.013850756134477],[104.394181975652558,19.013746612444997],[104.393352663912182,19.014073755446866],[104.391099152697365,19.014764480144422],[104.388980845451229,19.015179985417056],[104.38736961561095,19.015368958109168],[104.386665890679083,19.015775562671173],[104.386932696214942,19.016702768549692],[104.388060756762854,19.018401003122431],[104.389872888797498,19.020392271407474],[104.391132617463825,19.022460595234147],[104.391768580110224,19.023783663654257],[104.392195509923937,19.025273965654133],[104.393051137812563,19.027691997708281],[104.393802051983073,19.029185617400159],[104.394770472060657,19.0303184583336],[104.395197145398441,19.031808748964718],[104.395408309040604,19.033196669670016],[104.396660509006296,19.034539872529404],[104.397597112491525,19.035544523834087],[104.398417678265872,19.038491640536538],[104.401666201691128,19.035703944347205],[104.409875589227525,19.02977930956148],[104.412683274933087,19.026738173324667],[104.41448376574732,19.024251855322511],[104.417260866602575,19.019882064265754],[104.418763909823454,19.018784246303035],[104.419239180105976,19.018435422380303],[104.420511057781439,19.017501916195755],[104.420812194999186,19.01715889928084],[104.421205347781026,19.016711067908368],[104.421457158316159,19.015505375929518],[104.421045002117708,19.013280908451733],[104.419820092273255,19.00956331778351],[104.419343734279821,19.008117530406562],[104.419450592272113,19.006671896174982],[104.42234217546779,19.005738809914153],[104.423193621107316,19.005686585454406],[104.425882392525764,19.00552164037477],[104.428766311066425,19.003686955244014],[104.42902682841445,19.003422149237288],[104.430943365741058,19.001474023731472],[104.431970603634838,19.00042982748052],[104.433466071508107,18.999033626068275],[104.436334702942574,18.997890126976571],[104.439157580172406,18.996656070237286],[104.4404316616275,18.995647744678351],[104.442331632892646,18.993285689794856],[104.444742529733816,18.989833897824777],[104.44678711205637,18.987427046098432],[104.448618320115884,18.986503918488022],[104.450525765616163,18.986319803490186],[104.452761062238736,18.986832522152685],[104.458521356595739,18.989599072220717],[104.459986109082649,18.99072624645413],[104.460856161601399,18.991594113589429],[104.462092104321371,18.991500558053261],[104.463376722259341,18.991155429189412],[104.470827702434633,18.989153423550345],[104.472231704144207,18.989234260791708],[104.473704099908588,18.990230309827144],[104.474303705724296,18.991316802102336],[104.474324323376692,18.99135416123346],[104.475792694433437,18.994014797831742],[104.476008229270704,18.994405331417898],[104.477976649317895,18.998493535454031],[104.479472162892307,19.00029619053829],[104.479652074471005,19.000497412638833],[104.482510180939826,19.003693974445383],[104.483996508076032,19.005356246664437],[104.488131590056057,19.003325295776552],[104.492767950760864,19.004060856882472],[104.494914186942211,19.004401317006668],[104.496378997716988,19.004748738732104],[104.497431934547365,19.004618284604689],[104.499995707180631,19.002953312882074],[104.499995505743627,19.000336989915066],[104.503001644839614,19.000340574037534],[104.506267128720012,18.997979249583622],[104.506883879434298,18.996858267347111],[104.507106215719645,18.996454153191848],[104.506808548338029,18.993886747633827],[104.511569366799236,18.983558284194533],[104.512492685635038,18.982322579907382],[104.514178698874204,18.981782504473067],[104.518962477884145,18.981480956533336],[104.521304936305285,18.980703017301082],[104.523113089302512,18.981563988162204],[104.526027534678462,18.982592689744813],[104.530086255963383,18.985393354660108],[104.531284068001995,18.985001007727643],[104.534343519202082,18.982607021161904],[104.536159480951554,18.981540640296622],[104.536593537380199,18.98088604909772],[104.537815194538311,18.979043660274137],[104.54284306215277,18.97551796750389],[104.54428479587115,18.97316047784809],[104.54465450761964,18.970890168989815],[104.545223358123081,18.967396866720271],[104.544883265626993,18.96175201197353],[104.54468934396165,18.958533161302196],[104.547428306992728,18.953213389766205],[104.549419757878169,18.950975808108979],[104.551655151537943,18.948065498557053],[104.554317822865485,18.946291525652228],[104.555653075595544,18.944870190167805],[104.557483983036605,18.941641392425609],[104.56052813769405,18.94044889729139],[104.561985426113409,18.938969058625094],[104.564646337036891,18.93440134171837],[104.565029550843704,18.933743479461935],[104.565205129467188,18.930578499811496],[104.565998649195464,18.927621686037398],[104.567959235585391,18.92459077171933],[104.571179069838053,18.92120620641472],[104.571313367268161,18.921065033965323],[104.572277543260313,18.920051489386964],[104.572628624037918,18.918413109533553],[104.572563724117273,18.917922059987202],[104.572369200850062,18.916450230720852],[104.572720273113418,18.915395902775135],[104.573574589491983,18.914711011115507],[104.574850480238382,18.914073332440001],[104.576306097738055,18.913345811145867],[104.57750385252379,18.911548932404273],[104.578366131725502,18.908736815679738],[104.578770512393675,18.905687549148308],[104.578777938034449,18.903787413871363],[104.579167294651128,18.902703785785906],[104.579983594662608,18.901996182084034],[104.581417794316167,18.90172151239884],[104.584164371651497,18.902312863005513],[104.587719743827591,18.903802950776704],[104.588940559992267,18.904028206338836],[104.590840400110736,18.903485625074616],[104.597355898469829,18.898494154805935],[104.600125429525988,18.897420139875415],[104.604916906635225,18.896680264757926],[104.609494542330708,18.893578737667298],[104.611485954556827,18.893006761788985],[104.613107235392221,18.893201058381742],[104.614690222848154,18.893390751794804],[104.616254383494692,18.893582647778956],[104.616720164515016,18.893353775496507],[104.618733863478795,18.892364282235121],[104.621724749040595,18.891580720684122],[104.624814662634307,18.889216875902068],[104.626981470004708,18.888585207090117],[104.62853012420598,18.887580598488373],[104.629125306714215,18.886376400574186],[104.629160451860429,18.886013578955708],[104.629300796636258,18.884564709541191],[104.627767392964344,18.88176108925439],[104.627729747195232,18.881619608235788],[104.627385739090272,18.880326739640712],[104.627744347998402,18.878892724223778],[104.629880505761022,18.876612721398505],[104.631275734589195,18.87554745224103],[104.632949043329262,18.874269834648661],[104.63375634109363,18.873660560053157],[104.634528127881111,18.87290448657156],[104.634870387110652,18.872569192365738],[104.635823080953827,18.871191272751094],[104.636434332161656,18.870307180657605],[104.639180932615133,18.869086795203227],[104.646795368802159,18.867975083118512],[104.651121389113825,18.86659370392303],[104.653814496055759,18.865040851713996],[104.655126806191888,18.86511899020438],[104.656591605274571,18.864318473934116],[104.656991520592257,18.863594090386229],[104.659605206492529,18.858859591188651],[104.660696322087006,18.85797249935499],[104.661291813014387,18.857864167145291],[104.662374826918125,18.857667139088885],[104.665106307437668,18.856241855661988],[104.668341186294455,18.85359507867285],[104.668807979226656,18.853167390135209],[104.669790843162559,18.852266852044455],[104.670324726145324,18.851094025157053],[104.670370442665657,18.849253801876344],[104.670007364835072,18.848313517950796],[104.669279585628274,18.846428712340163],[104.669271971932503,18.845318189494183],[104.6722093432668,18.843745169202442],[104.672976894146544,18.843055318893466],[104.673521553304653,18.842565791150303],[104.674468270210596,18.840822041796788],[104.675535682732303,18.838855934097097],[104.677168577348013,18.837470348912806],[104.677371575399633,18.837463184836302],[104.67777542159503,18.837618193360292],[104.678069584983035,18.837604286477337],[104.678285877029367,18.837624886532641],[104.678842941013187,18.837904671916913],[104.678948502268938,18.8379350363196],[104.679260843934259,18.838024880121086],[104.679651071308911,18.838078693471669],[104.680077376173799,18.838023192714427],[104.680244528498378,18.838041061740601],[104.68299757564732,18.836955039487691],[104.683956117712171,18.83644945528885],[104.685330070145227,18.835724740354379],[104.685824187855502,18.835587281217375],[104.686252252191395,18.835418140560446],[104.68633689616054,18.835384695111067],[104.68636562943658,18.835395141528963],[104.687498843068752,18.835165260423217],[104.68931622966025,18.835284743379603],[104.689722683861078,18.835234867083422],[104.690332967328573,18.835169508492871],[104.690617530385666,18.835222490627391],[104.690681481191845,18.835256434260536],[104.690775471248202,18.835322837231914],[104.690767323906655,18.835701093383133],[104.692156310748089,18.836294361545029],[104.692555764587453,18.836348661609961],[104.693005277988775,18.836559847568164],[104.69342551932418,18.836765859874394],[104.693553453846221,18.83687446051626],[104.693624513138687,18.837019543525358],[104.693624148108981,18.837220851767409],[104.695140572388155,18.838441837414557],[104.695518823988181,18.83874639117311],[104.695599511035155,18.838742011891629],[104.695905427721698,18.838769588561341],[104.696231548278035,18.83900779845489],[104.696982417600026,18.839239989961865],[104.700217279882807,18.839651927662281],[104.701375709451128,18.839696670734494],[104.701430046974224,18.839674564887158],[104.701813759408211,18.839575474333607],[104.702110236947973,18.83952608699316],[104.702431926746186,18.839565722549828],[104.703406346453036,18.839129459570195],[104.703859742249278,18.838360308336807],[104.704825446999166,18.836722004274073],[104.706038544552541,18.835747851822305],[104.70728976505913,18.835706898075482],[104.707797147320761,18.835944858690464],[104.708820970893498,18.836425022356572],[104.709051294885356,18.836696087863544],[104.709088644400268,18.836695328906806],[104.709419769167823,18.836745734138713],[104.70960919077136,18.836795113682335],[104.709785520095053,18.836978873808039],[104.709891494794221,18.83712429436088],[104.709994198918352,18.837295051761448],[104.710081002342378,18.837477949251181],[104.710167767734092,18.837727391975765],[104.710237182171213,18.837910316571765],[104.710256991895719,18.838115039261311],[104.710270201716114,18.838130585358364],[104.710815184327188,18.838808160960927],[104.710942853053183,18.838884828604556],[104.711256503127515,18.838962598547408],[104.711709874341935,18.838956828212194],[104.712588691679969,18.839110454566423],[104.713067258506129,18.839372559474672],[104.713853157515842,18.839346959625718],[104.713878463290584,18.839349189233126],[104.713883084693109,18.839345984311617],[104.714087765993028,18.839339316798412],[104.715026161244992,18.838542059006446],[104.714967962290643,18.83727803408534],[104.714881233737529,18.835394344034654],[104.714941195219751,18.835195628009732],[104.714892380124098,18.834986590199595],[104.71485958195953,18.834924075350454],[104.7147254399151,18.832010509642362],[104.714769960866136,18.831630935525112],[104.714721520456621,18.830983719039672],[104.715178672168506,18.829796870778161],[104.715226540547405,18.829792709987629],[104.715395124153289,18.829762012914181],[104.715638024423683,18.829659198854394],[104.715777698451831,18.82955966149979],[104.715915133940896,18.829267136192623],[104.716029746941473,18.828977251202026],[104.716202381309941,18.828794597745603],[104.716383063620071,18.828725362861451],[104.716539623240322,18.828698541741133],[104.716653535972895,18.828678334625291],[104.716983197665741,18.828738665678888],[104.717343428003346,18.828835266061553],[104.71763535431478,18.828740829433027],[104.717823508416515,18.82849944311257],[104.718060000621037,18.828338557217261],[104.718262627103883,18.828097788811331],[104.718803572206468,18.827990196838492],[104.719529137016409,18.827537952797925],[104.719703794458937,18.827305500676953],[104.719925209160621,18.826945125038016],[104.719990365021772,18.826728893672367],[104.719971149569247,18.82661151777663],[104.719860183018184,18.8262038315643],[104.719848454499811,18.826160741388762],[104.720000571586098,18.825991624219451],[104.72049642705835,18.824234516441972],[104.720455439825315,18.822122068305148],[104.720457160582612,18.822064062841992],[104.720452378712267,18.821915644736233],[104.720450007807287,18.821842057297985],[104.720443139626042,18.821488091643662],[104.720636693914315,18.819917307517741],[104.720702571755723,18.819382670682664],[104.721236659459393,18.818529391659769],[104.722365823907722,18.817965095792157],[104.72411006450433,18.818336196479034],[104.725547416930084,18.818641990877516],[104.727637718439141,18.818682332980707],[104.728443021324026,18.818288494953691],[104.730386154924176,18.817338172184549],[104.730613343855225,18.817227059509968],[104.732040139233831,18.816717349088425],[104.734123182670871,18.816470198151212],[104.734420403326951,18.816434931270695],[104.735013629012542,18.816256759265439],[104.735816795730742,18.816015529026238],[104.735849185246224,18.815686396953996],[104.735979110344175,18.814366126450093],[104.736003583753885,18.814117439297892],[104.736153984939122,18.812589062481656],[104.736350789877136,18.810589089189058],[104.73695047226434,18.807740272995247],[104.737022162187827,18.807399700204162],[104.738242744043674,18.804585004828514],[104.738380178964874,18.802770848937815],[104.738952327588706,18.801569630285812],[104.743156265577994,18.801243328919352],[104.744422494213651,18.80123275630223],[104.745517815001719,18.80122360378245],[104.746177663520015,18.801218086973666],[104.749893177583544,18.799664070643008],[104.753082199080282,18.797943216687518],[104.755279644467691,18.795904702916097],[104.757398693067188,18.79494042330154],[104.758728160640331,18.795116116701163],[104.761970594266032,18.796405907502642],[104.76455715857297,18.797874452096515],[104.764557158278848,18.79787445192952],[104.764679292538403,18.797871400434627],[104.768043867314233,18.797787305877687],[104.770074066389199,18.798516926353852],[104.770431747673015,18.798645467727358],[104.773384264372993,18.800364503518058],[104.774977469519214,18.80129207718204],[104.775131479199032,18.801381741290637],[104.775786815619298,18.801513955939907],[104.776939714073521,18.801746548053043],[104.777830441317391,18.801739576427455],[104.779320248842978,18.801727906363574],[104.783814055626223,18.80125302940548],[104.785149258360534,18.800249117915172],[104.787697543752316,18.793186704034394],[104.789017398014707,18.790625967993993],[104.78961438121334,18.789974485702135],[104.789687018405033,18.789995861873713],[104.789793001933234,18.789929868530333],[104.790028215703686,18.789584397592357],[104.790383843335391,18.789495746704016],[104.790896046296282,18.789444063758015],[104.79148546414477,18.789272984471715],[104.791551005861095,18.78925396076766],[104.791967234020319,18.78903128828243],[104.792419901349845,18.788482188541],[104.792658111245785,18.788264549487501],[104.793145537661289,18.788030592706509],[104.793637362293325,18.787690389994147],[104.79373741979397,18.787344891371468],[104.793757585568386,18.787133408791799],[104.793907479855292,18.786460061135617],[104.794009344321239,18.786016503117402],[104.794331659796228,18.785291069868112],[104.794436599559674,18.785025227134373],[104.794666354592962,18.784425580227552],[104.794856681555842,18.784217538044597],[104.794882296595247,18.784206286872038],[104.795156950523307,18.784085832851058],[104.795268880449498,18.784025202783891],[104.795874194702463,18.783922986739729],[104.796387944846657,18.78391088527901],[104.796539121385777,18.783889286718892],[104.797669507392769,18.783708951981335],[104.79819573424831,18.783354684093656],[104.79886831749117,18.782847904060713],[104.798883428009418,18.782836460266854],[104.799374670024079,18.782565200611725],[104.79970060160413,18.782478429210602],[104.799912179033001,18.782422101483547],[104.800584247695411,18.782393600485801],[104.801446001598705,18.78229082641916],[104.803188997217035,18.782076592396823],[104.803913854220582,18.782061646673625],[104.804959595855053,18.782062741271215],[104.805064147259529,18.782062850385302],[104.806922876386039,18.782186728942452],[104.808893022032834,18.782500589462177],[104.809184191090353,18.782502144108754],[104.810465207925631,18.78250897848547],[104.811755017915345,18.782553399929611],[104.812087092024242,18.78256483521713],[104.813011994465285,18.782457317318411],[104.813552603560396,18.78253919878264],[104.813805142603158,18.782699048463297],[104.813889151516278,18.782752223456811],[104.814296067623985,18.783115156979569],[104.814498049792348,18.783150153589776],[104.814658956778288,18.783061326033859],[104.815024870153934,18.782818541801404],[104.815615594379835,18.782541246152448],[104.815900309838128,18.782419460906997],[104.816071123028806,18.782338296988236],[104.816135172124774,18.782304467866531],[104.816157403278922,18.782292388969786],[104.816334405332583,18.782196217938544],[104.81671868510422,18.782128847127066],[104.816730580398541,18.782123607769538],[104.816982096649127,18.782189143651181],[104.817076174412449,18.782213656755253],[104.817573002366032,18.78243104260028],[104.817629251779778,18.782455654274148],[104.818350722666835,18.782723463553396],[104.819293013314919,18.782965111148112],[104.820987242529327,18.783557451057508],[104.823123573143818,18.783912746851676],[104.823283324683331,18.783939314287768],[104.823575387495211,18.783987885339474],[104.824996763479646,18.784517352625876],[104.825628780707376,18.784507976661864],[104.825857567846143,18.784504582081393],[104.826355470594123,18.784437875782402],[104.826978007001472,18.784450184604687],[104.827546949291047,18.784667629621623],[104.827991485148345,18.785019282812346],[104.828293274286466,18.785258013780204],[104.828564139313997,18.785325269636314],[104.829089967361583,18.785374004872661],[104.82926627831182,18.785465051346513],[104.830299149205828,18.785551391736472],[104.830889552779112,18.785599367154084],[104.8312887501815,18.785645192202903],[104.831543933920912,18.785674485038403],[104.831970824780868,18.785613872633963],[104.832219832758952,18.78560056669188],[104.832611189238321,18.785546708375147],[104.833052340492671,18.785506450615504],[104.83332971386865,18.785567649989726],[104.833794745219734,18.785560427281268],[104.834647398194917,18.785329289149061],[104.835518208227853,18.785228119273967],[104.836587848158672,18.785219468786202],[104.837413592050055,18.785069599533823],[104.837990110961059,18.78490193190007],[104.838424010518395,18.784880707071075],[104.838809155126185,18.785018994551091],[104.839483649572642,18.785159581695698],[104.839732647637035,18.785235777248239],[104.840382285817583,18.78528189359886],[104.841062799673622,18.785350682984209],[104.841681704884024,18.785405390843046],[104.842013319967791,18.785355899781568],[104.842400334387733,18.785038905400064],[104.842842774846972,18.784750733564046],[104.843131103174528,18.784630212456772],[104.843504628448727,18.784474078143774],[104.843888565726985,18.784381426304151],[104.844596038232552,18.784323531786406],[104.845239889112833,18.784127274609332],[104.845581491231115,18.783964802421412],[104.846043044818074,18.783727856611623],[104.846471193403644,18.783409730708694],[104.846770269161183,18.783125200393879],[104.847018143804533,18.782760808169822],[104.847207845858719,18.78248193222494],[104.847463464232689,18.782338097400388],[104.847607960569974,18.78225678997072],[104.848308076116197,18.781777545436725],[104.848963057361274,18.78116116548604],[104.849409349043654,18.78069030643276],[104.849682386884822,18.780266982029005],[104.849782227972327,18.779989109977379],[104.849828872529116,18.779724146464037],[104.849868088963746,18.779328633163125],[104.849868640477624,18.778748733155318],[104.850216569264447,18.778474964357578],[104.850722985563124,18.777976602546392],[104.851196954805246,18.777297039177046],[104.851385361457574,18.777102683848494],[104.851556241515979,18.776974065333153],[104.85221793782685,18.776805074375631],[104.852828833845592,18.776621499036583],[104.853432670799847,18.776512695983396],[104.853995944662316,18.776214785790447],[104.854936393178519,18.775600595420649],[104.85532195798055,18.775426896045708],[104.855705579215197,18.775161206298399],[104.855900294685981,18.7750150685658],[104.856463597904025,18.774604258040654],[104.856549815773405,18.774519665921204],[104.856762727785991,18.774475760256308],[104.85698494747848,18.774511133178798],[104.857160696113098,18.774643582914251],[104.857206948032939,18.774705437716605],[104.8572756183504,18.774782177027575],[104.857349518757999,18.774879282767007],[104.857582826542824,18.775372100312179],[104.857791824663252,18.775651432140823],[104.858165754244368,18.77590813146363],[104.858336308732191,18.776104844877615],[104.858435666712424,18.77629473480572],[104.858651503322534,18.77664877838],[104.859466024539529,18.777739330991032],[104.859892542490996,18.778105687440089],[104.860063108445203,18.778282109112006],[104.86036881953207,18.77848564603288],[104.860546430420797,18.778554114453048],[104.860721793319541,18.778621731463865],[104.861122559454401,18.778738429243653],[104.861366482444808,18.778871540242775],[104.86146718437125,18.778948485548778],[104.861540634916608,18.779004608276495],[104.861588293973611,18.779070835191803],[104.861732091111278,18.779270654973661],[104.862010624113012,18.77970300042999],[104.862309528794626,18.780161498162631],[104.862558170055934,18.780541192889903],[104.86282886876964,18.780833633235297],[104.863148702270891,18.781231382967178],[104.86334724613458,18.781280712689107],[104.863551401013225,18.781220280659898],[104.863873808329288,18.781145546215882],[104.86452786700508,18.781011139382692],[104.864563934915878,18.781003727476737],[104.865076983473344,18.780951588294521],[104.865403488931236,18.780936459304073],[104.865930921751314,18.780968841812086],[104.866874319575331,18.781133437286559],[104.867501824197547,18.781188815866006],[104.867587600859679,18.781167047069999],[104.868092624644348,18.781038878895831],[104.868928089173806,18.780724431714539],[104.869285176987034,18.780685963449606],[104.869387369641444,18.780674954336437],[104.869558033957858,18.780715138705148],[104.869891745608157,18.78158363629602],[104.870531009033641,18.782844889584567],[104.871071923002347,18.783637757017964],[104.87130316063903,18.783976700577625],[104.872143053712676,18.785469173081516],[104.872307285755042,18.785761006482385],[104.872898190007589,18.786525819194509],[104.87309564428476,18.786471020929508],[104.873157565952368,18.786439412169969],[104.873364746479695,18.786143334706381],[104.873547823583792,18.785939588422572],[104.873573501362571,18.785911011600046],[104.874043095995489,18.785802864668199],[104.874402408294827,18.785782771262355],[104.874937704745633,18.785674865072874],[104.875284529574316,18.785602359704566],[104.87568527900244,18.785635922549449],[104.876018212191738,18.785678974551665],[104.876488861113174,18.785579507605785],[104.876668995034166,18.785486183483108],[104.876685341505933,18.785477698622195],[104.876710791474309,18.785464520045803],[104.877034910548446,18.785296456494908],[104.877703807647478,18.785113850430228],[104.878009689490725,18.785100520648783],[104.878180412267227,18.785134479099085],[104.878607188693124,18.785209410207123],[104.878997546078182,18.785018755291528],[104.879452123606143,18.784936550964812],[104.879995942013323,18.784953395317178],[104.880328938685295,18.785000325988971],[104.880834153651136,18.784831133541005],[104.881069051809547,18.7846889539152],[104.881211336051862,18.784628038416809],[104.881389275395293,18.784546855297489],[104.881660704087139,18.784529222711672],[104.881894364957461,18.784513319216327],[104.882029456381559,18.784533694726878],[104.882121941825261,18.784554079412416],[104.882505506023676,18.784764769250224],[104.882902221128802,18.784868430338051],[104.883391008050538,18.784919149656826],[104.884018304405501,18.78508581097136],[104.884461990682354,18.785219784012007],[104.884929156872715,18.785544850383221],[104.885021848842854,18.785622633453755],[104.885247792093921,18.785812234711795],[104.885407697267013,18.785891487061654],[104.885952270440882,18.785934488398222],[104.88640372281732,18.785912475940961],[104.88700143658096,18.785655266484362],[104.887499611081978,18.785364057750847],[104.887714697659788,18.785194842533809],[104.888033415180814,18.784944096584926],[104.888582064954321,18.78488767364146],[104.888677636550668,18.784877844924438],[104.888751497650048,18.784827670253801],[104.88934909900307,18.784421710790291],[104.889845548123574,18.784218433788894],[104.890519678188795,18.784192240467906],[104.890907923939821,18.784206304663087],[104.891555473813412,18.784003897575438],[104.891949003822859,18.783810867469462],[104.892153224812347,18.78366541147761],[104.892259979112382,18.783631490442858],[104.892646266182709,18.783694942199268],[104.892820451327268,18.783778218314382],[104.893081655356951,18.784110692801654],[104.893220910670109,18.784376605179109],[104.893394907737004,18.784820774349697],[104.893610672297072,18.785211760824748],[104.894107298421318,18.785237159412887],[104.894606467471363,18.785476675775264],[104.894777025573717,18.78572080513505],[104.894805484711156,18.785795375066009],[104.894905051433298,18.785876790573514],[104.894997502463028,18.785943436222144],[104.8950847529659,18.786006332850036],[104.895485498403247,18.786239257129747],[104.895694429263486,18.786304239147064],[104.896121074748734,18.786656974307419],[104.896530854539094,18.786738353328438],[104.896958625571841,18.786898931733649],[104.897141638280317,18.787049440226095],[104.897415437096953,18.78727460980296],[104.897911151585518,18.787375175313421],[104.898403816193238,18.787245722495207],[104.898738688512708,18.78713971767333],[104.898794117418731,18.787131417296347],[104.898974549544391,18.78710439779686],[104.899512765888986,18.787023799441823],[104.900168901342681,18.786713418112917],[104.900749609500934,18.786556982697419],[104.901325260193858,18.786544905701323],[104.902246291854652,18.786594330369041],[104.902822520954615,18.7865996290071],[104.903576716188965,18.786511927103984],[104.904313468491793,18.786257978502679],[104.904522976578903,18.786214061928064],[104.905589994148471,18.786424817560757],[104.905837823586182,18.786527224950351],[104.906308255251631,18.786776809053276],[104.906763946725079,18.786966137748013],[104.907012535159026,18.786967798111579],[104.907510979928801,18.786577986422518],[104.908068730311044,18.78636218281456],[104.908236436487968,18.786337980344264],[104.908663282982616,18.786331411090725],[104.908984515266155,18.786482826757084],[104.90908078682196,18.786555954150383],[104.90923695820392,18.786674580912322],[104.909449444566576,18.786797583419048],[104.909769214942614,18.786982688894614],[104.910281170972439,18.787443888208703],[104.910455614357659,18.787942169933505],[104.910515440216585,18.788291288776836],[104.910667941722153,18.789247276800346],[104.910674470060144,18.78930895390226],[104.9106846336026,18.789404974859558],[104.910721036055563,18.789748889335982],[104.910907635280566,18.790019691606354],[104.91104697879868,18.790252457644677],[104.911481794913627,18.790576204095693],[104.91192995985412,18.790671296171048],[104.912328392794848,18.790671483631904],[104.912513868368748,18.790644384510387],[104.912906472212654,18.790760235451138],[104.913153540097682,18.790814325029309],[104.913491400499495,18.790855107334199],[104.913865029253898,18.790685773624894],[104.914079498892434,18.790519701005916],[104.914137597120998,18.79041831309338],[104.914160695842369,18.790377969345965],[104.914172691565568,18.790357079160575],[104.914288821362874,18.790154185730202],[104.914357827329283,18.789989909559004],[104.914463304085146,18.789738810052285],[104.91467262588958,18.789389887953995],[104.914802568706634,18.78926611073835],[104.914864412388411,18.789207201354969],[104.914912368143533,18.789190287342798],[104.915335072540117,18.789041198668329],[104.915631479050447,18.788875206538648],[104.915980213679177,18.78864265502197],[104.916028978677076,18.788549753951315],[104.916119724465872,18.788376875937139]]]]}}
]
}
