{
"type": "FeatureCollection",
"name": "TPZ",
"crs": { "type": "name", "properties": { "name": "urn:ogc:def:crs:OGC:1.3:CRS84" } },
"features": [
{"type":"Feature","properties":{"gid":1,"id":null,"perimeter":null,"hectares":null,"km2":49.911,"area":49758.223021820071},"geometry":{"type":"MultiPolygon","coordinates":[[[[104.715178672168506,18.829796870778161],[104.715226540547405,18.829792709987629],[104.715395124153289,18.829762012914181],[104.715638024423683,18.829659198854394],[104.715777698451831,18.82955966149979],[104.715915133940896,18.829267136192623],[104.716029746941473,18.828977251202026],[104.716202381309941,18.828794597745603],[104.716383063620071,18.828725362861451],[104.716539623240322,18.828698541741133],[104.716653535972895,18.828678334625291],[104.716983197665741,18.828738665678888],[104.717343428003346,18.828835266061553],[104.71763535431478,18.828740829433027],[104.717823508416515,18.82849944311257],[104.718060000621037,18.828338557217261],[104.718262627103883,18.828097788811331],[104.718803572206468,18.827990196838492],[104.719529137016409,18.827537952797925],[104.719703794458937,18.827305500676953],[104.719925209160621,18.826945125038016],[104.719990365021772,18.826728893672367],[104.719971149569247,18.82661151777663],[104.719860183018184,18.8262038315643],[104.719848454499811,18.826160741388762],[104.720000571586098,18.825991624219451],[104.72049642705835,18.824234516441972],[104.720455439825315,18.822122068305148],[104.720457160582612,18.822064062841992],[104.720452378712267,18.821915644736233],[104.720450007807287,18.821842057297985],[104.720443139626042,18.821488091643662],[104.720636693914315,18.819917307517741],[104.720702571755723,18.819382670682664],[104.721236659459393,18.818529391659769],[104.722365823907722,18.817965095792157],[104.72411006450433,18.818336196479034],[104.725547416930084,18.818641990877516],[104.727637718439141,18.818682332980707],[104.728443021324026,18.818288494953691],[104.730386154924176,18.817338172184549],[104.730613343855225,18.817227059509968],[104.732040139233831,18.816717349088425],[104.734123182670871,18.816470198151212],[104.734420403326951,18.816434931270695],[104.735013629012542,18.816256759265439],[104.735816795730742,18.816015529026238],[104.735849185246224,18.815686396953996],[104.735979110344175,18.814366126450093],[104.736003583753885,18.814117439297892],[104.736153984939122,18.812589062481656],[104.736350789877136,18.810589089189058],[104.73695047226434,18.807740272995247],[104.737022162187827,18.807399700204162],[104.738242744043674,18.804585004828514],[104.738380178964874,18.802770848937815],[104.738952327588706,18.801569630285812],[104.743156265577994,18.801243328919352],[104.744422494213651,18.80123275630223],[104.745517815001719,18.80122360378245],[104.746177663520015,18.801218086973666],[104.749893177583544,18.799664070643008],[104.753082199080282,18.797943216687518],[104.755279644467691,18.795904702916097],[104.757398693067188,18.79494042330154],[104.758728160640331,18.795116116701163],[104.761970594266032,18.796405907502642],[104.76455715857297,18.797874452096515],[104.764557158278848,18.79787445192952],[104.764679292538403,18.797871400434627],[104.768043867314233,18.797787305877687],[104.770074066389199,18.798516926353852],[104.770431747673015,18.798645467727358],[104.773384264372993,18.800364503518058],[104.773516530198918,18.800051625645274],[104.774259255006413,18.799366235333288],[104.77172795781847,18.794604994184009],[104.767841606894436,18.790448612168419],[104.766133857423981,18.787036245786272],[104.766170675634029,18.784864964083727],[104.76673408818985,18.782796755049798],[104.765965809263179,18.780993836509541],[104.763304769148434,18.779855918569059],[104.758891683603949,18.77898266739545],[104.758262497908248,18.77798076674722],[104.757004339026992,18.77584348214614],[104.754696186789019,18.773037420829876],[104.754560498595367,18.769967240677385],[104.75218386519721,18.766159970148045],[104.752202608887345,18.762142427833435],[104.751607960558715,18.756469828455568],[104.751610376814568,18.754818544120472],[104.750632946433242,18.753237751801361],[104.750185195143914,18.750221758906552],[104.748528584225838,18.749286203613895],[104.746647295248721,18.747416991691367],[104.745519123184991,18.745907763158364],[104.744618564792077,18.743393706186701],[104.742358845404056,18.742672657657149],[104.739118918910449,18.742309194069026],[104.739648637427166,18.740874028664507],[104.739801995076348,18.739151157837391],[104.740106613242403,18.737069520657979],[104.740260290533698,18.735131263151029],[104.739434395121393,18.733155747903936],[104.737177276267218,18.730855146105569],[104.73718049507103,18.728773088831254],[104.738086398798416,18.727697429238876],[104.736655019900397,18.727480036037417],[104.736203680744239,18.726976834555995],[104.73673415230229,18.725039108497985],[104.73778919261828,18.724968793248273],[104.738514082469408,18.724435878571384],[104.738012714655227,18.723908853603287],[104.736859630005355,18.72266319789254],[104.737216178764385,18.719410055096706],[104.73576012480919,18.71926446405131],[104.734401666687205,18.720937212715249],[104.733849355829832,18.720888580586859],[104.733822542433401,18.719801779106245],[104.732606642833929,18.721260705375698],[104.731155593575807,18.721507427039281],[104.728849173151886,18.720150469750251],[104.726553501019268,18.718533563415868],[104.725775587763167,18.71763511723837],[104.725268550684987,18.718902923569168],[104.72497538516653,18.721436476563529],[104.724336480607974,18.723253395166235],[104.722887335211396,18.725564892747848],[104.719879553781524,18.726386716539224],[104.719761469989265,18.727873876801819],[104.717677055441769,18.729688601011489],[104.716862661223331,18.732662042552679],[104.715589739156925,18.733210978943188],[104.712353590595683,18.732214479065373],[104.711315436657642,18.733938044043317],[104.710394682255796,18.73512088254542],[104.708178183153294,18.735529358133693],[104.707525669365509,18.73784537104531],[104.706227265426364,18.738615680646809],[104.704444324952149,18.738303937224487],[104.703898942574568,18.741135000921791],[104.701303216121147,18.742006198621624],[104.699137553018105,18.744165288893878],[104.69746229439211,18.744059609429698],[104.696440645769428,18.7435029607859],[104.695807546789965,18.742766480092474],[104.695548108835638,18.742125500884367],[104.695555554148513,18.741609227609278],[104.695488366361161,18.74094304343938],[104.69612104558162,18.740874408893902],[104.696848808216686,18.740947326781495],[104.698928576081485,18.740097281162463],[104.701255326843764,18.738504833261267],[104.702178960220991,18.735725869385121],[104.704235494731549,18.734081463069767],[104.705748885877483,18.733980868450228],[104.707371160665943,18.733417025050958],[104.70931891508971,18.732132819291717],[104.710078675046262,18.730280370307746],[104.71180994450296,18.729150271010855],[104.714294916194049,18.729720464724089],[104.715376790443472,18.729104236119198],[104.715541070358825,18.727817244067147],[104.716948374892723,18.726480645522258],[104.717816448447735,18.724422367892387],[104.719115032817243,18.723446015691952],[104.720936156771018,18.722690714217428],[104.72194968363462,18.72156761556052],[104.722206670714812,18.719077798197475],[104.722949601823004,18.714407959358148],[104.722086259470757,18.713455770650143],[104.720761032992101,18.71022665967693],[104.719190150323683,18.709302271967601],[104.716527828835353,18.710105050038234],[104.714401364277208,18.710752789671012],[104.713367970746191,18.711067558692225],[104.711126617761778,18.71286798960767],[104.708582532607167,18.714839434842677],[104.704734471560499,18.715444351390435],[104.682143746101872,18.704634996957552],[104.681451607913388,18.704303753816045],[104.662214632164435,18.701119033344039],[104.647527863705179,18.707755149655064],[104.634509705644646,18.715565433601512],[104.621793080548429,18.721715702769938],[104.621454510261259,18.725480332991602],[104.620877646423253,18.731638969475195],[104.613550594003186,18.736926829449835],[104.603777933522139,18.738984825135692],[104.600636402627785,18.741359053046985],[104.596219215819005,18.744679407368622],[104.592315620737992,18.747282260339521],[104.588064255113466,18.750116814837611],[104.582726219482524,18.753819777264827],[104.581331455816397,18.75476449847768],[104.580563509489338,18.755284646512731],[104.580304087320343,18.756486085324021],[104.580049742733593,18.757562516078202],[104.57961347638701,18.758806100541687],[104.578319928277764,18.758343660002922],[104.57734166745243,18.758054503225438],[104.576666238265716,18.758502623209989],[104.575833044376466,18.759055406688706],[104.574855323089153,18.75855102741183],[104.573649347618229,18.758978704510834],[104.573721770537318,18.760126662682147],[104.573720869566415,18.760485345092583],[104.573317854682173,18.760516412319515],[104.572817009322662,18.760555020439785],[104.572290765341393,18.760195132320892],[104.571687769885642,18.760408962922362],[104.571083685056053,18.761053212071236],[104.570856675248436,18.761483113361564],[104.569801466401344,18.76183937313888],[104.569498599913757,18.762484309581577],[104.568070795527234,18.763420155426711],[104.5673596316025,18.76389223915815],[104.566210612567914,18.764654967887459],[104.564638885532162,18.765698271606169],[104.563338021556277,18.766561758537804],[104.561738510113202,18.767623455129186],[104.56074341279475,18.768283951824401],[104.560329567954327,18.769096873397299],[104.559929851384254,18.769882034448337],[104.559499184444803,18.770727982322494],[104.559328704042557,18.771449908309204],[104.559128034440604,18.772299665195419],[104.559016770581849,18.773534835428009],[104.558877091448394,18.775085427847007],[104.558797670783704,18.775967059527023],[104.555832012884338,18.777170140904055],[104.55444451891988,18.777732984607308],[104.553105478505572,18.77826514502047],[104.551714471592547,18.778808497912703],[104.550370905056468,18.779333306974543],[104.54938545897754,18.77982983995544],[104.548253695158735,18.780400086685844],[104.547352880301048,18.780832897931326],[104.546309421332452,18.781659137905535],[104.544886914108361,18.781917771544155],[104.544054470269089,18.781827981609219],[104.543236661287025,18.781739767393798],[104.54292396241361,18.782162813257468],[104.542592343587344,18.782611453897658],[104.542177226023838,18.783483704317518],[104.542131394679984,18.783964422919428],[104.542035625636728,18.784968923442477],[104.542019757094124,18.785515730092044],[104.541984944315061,18.786715324932974],[104.541951110385511,18.787060453558638],[104.541890721556015,18.787676476979183],[104.542037918514509,18.788410549633166],[104.542162239399147,18.789030531573623],[104.541151724678684,18.78955223868892],[104.54105867962484,18.790076192468895],[104.541130009287329,18.790837475020446],[104.540182897672352,18.791646589689581],[104.539265829161508,18.791601399652414],[104.538530906710818,18.791131814135497],[104.537101760859258,18.791134721993011],[104.535919560823913,18.79111186176717],[104.535083866823328,18.791671244573564],[104.533852312934442,18.792330184146316],[104.532748919377568,18.793287678441985],[104.532380172455305,18.793986039653291],[104.532069287664783,18.795246649476262],[104.531777367571067,18.796430343324943],[104.531316676805432,18.79712847590849],[104.530122455123944,18.797780701320349],[104.529461424457679,18.797483547243392],[104.528656668620712,18.797121779496845],[104.527326910588954,18.797031431343733],[104.526733652032718,18.797203636364561],[104.525536685409833,18.797551071547023],[104.524982214040065,18.797948447256957],[104.524593015567845,18.798627539433099],[104.523097793156083,18.799686776327437],[104.52204166402737,18.800002086902058],[104.520782470235289,18.80043304622588],[104.520069583629279,18.800987213196994],[104.519562124499842,18.801947282506163],[104.519610852218818,18.802552446777597],[104.510571605350123,18.798024293512313],[104.509895045691593,18.799660179173429],[104.507594261762748,18.8056343970234],[104.512712504550535,18.812443594425559],[104.517269551018359,18.815989237795861],[104.519148028559115,18.81787671845639],[104.51893543640611,18.820000444654863],[104.51936971240157,18.820294632187966],[104.52067827396813,18.820297999770418],[104.522832029203741,18.820987778019752],[104.523939588662287,18.820253717755914],[104.525872260695536,18.820942896682222],[104.52786007639979,18.821684831417798],[104.531562302685629,18.82211524808563],[104.533219091198887,18.82264575326462],[104.535979656605917,18.823810615824819],[104.538994738051201,18.824054122390862],[104.542321809435734,18.822784385841707],[104.544694370388328,18.822896108751085],[104.546988716386167,18.82452573002422],[104.548873946632796,18.826648605316027],[104.548423369028583,18.828765818897434],[104.546415902900023,18.830738028852387],[104.543522143836157,18.831366456208194],[104.540593493722724,18.831182736598908],[104.538335235285501,18.829906176853427],[104.536920185501657,18.828500376647497],[104.536409302987877,18.82839094028871],[104.534366671923578,18.827438417805627],[104.53282242264315,18.826171312259032],[104.529342379417727,18.82532039954312],[104.527407141686609,18.82552604492696],[104.525421056170856,18.82415248878829],[104.523653432443481,18.823726901568737],[104.521716718650055,18.824458834532969],[104.52027881257861,18.824718316823869],[104.518922365755301,18.82382335309865],[104.51852810923782,18.824069333251604],[104.518384264278168,18.825506182665354],[104.508548684184134,18.835805305187783],[104.506645185248829,18.837435998214026],[104.502625952409801,18.84503653484947],[104.501182392240153,18.850469256300894],[104.499167698333167,18.855900426249097],[104.498007027805187,18.862149359089994],[104.496890011717625,18.864261172539464],[104.492665738579973,18.872831883366491],[104.488691854155618,18.880818704914006],[104.487612412611441,18.882988045285895],[104.484656408896797,18.888360931010844],[104.48022450752795,18.889983792454569],[104.476978371727029,18.889507106237545],[104.473592899893987,18.887148834440939],[104.46928316207908,18.884494278744022],[104.464841614799028,18.88454026776509],[104.461581195351869,18.884983984983631],[104.461252339197046,18.894884292412339],[104.461465212034682,18.895539668570191],[104.462807192707132,18.899671128663542],[104.462740915752818,18.900103320231253],[104.462165760334813,18.903853816627446],[104.453965832786821,18.914590133129948],[104.447968306530896,18.923838140803483],[104.444033608222071,18.924729560448991],[104.438853135646724,18.925903072150739],[104.434245594455803,18.928872192862972],[104.431928249427045,18.930365415216372],[104.430353763271583,18.931556164502062],[104.43015063154634,18.94150927972467],[104.42927551356297,18.941852312608106],[104.429049800360417,18.941948885555711],[104.428517315089351,18.941828969867391],[104.428074747629125,18.941754177053436],[104.427723704698735,18.941906729870283],[104.427304098149946,18.942322285925982],[104.426296982644189,18.943212751988568],[104.425938356380769,18.94332574110431],[104.425404314264668,18.943440443701046],[104.424946689885871,18.94368755335659],[104.424107250608245,18.944750236899353],[104.423442863330934,18.945520738178967],[104.422795133860276,18.94628816901762],[104.422589216712041,18.946614004921514],[104.422573752205693,18.946968673663896],[104.422955355190524,18.947686080521542],[104.423184215696381,18.948198533772246],[104.423329160079788,18.949378370677184],[104.423664752455281,18.950013161556132],[104.423909107896293,18.950682691817722],[104.42391664537034,18.95116734514891],[104.423866122766427,18.951359013581417],[104.42386612285587,18.951359019420696],[104.423852445104558,18.951410909302744],[104.423870852051138,18.951430628650446],[104.425163880324504,18.953121367930432],[104.427599568153013,18.954520850123842],[104.428727926919692,18.95524197491946],[104.430194286603324,18.956322906085131],[104.431392477749682,18.958586661744715],[104.431557744953125,18.95922103733734],[104.435437913979001,18.962458326445404],[104.440389664203678,18.964702909496172],[104.445512963974338,18.967392263190607],[104.451004547815501,18.969617534023104],[104.458502638316162,18.972617393527493],[104.463695257463513,18.975235136111316],[104.468329344044434,18.978271230355169],[104.47064424756374,18.980486782312102],[104.470724559016489,18.980643964390897],[104.47355929200792,18.986191782239139],[104.474324323376692,18.99135416123346],[104.475792694433437,18.994014797831742],[104.476008229270704,18.994405331417898],[104.477976649317895,18.998493535454031],[104.479472162892307,19.00029619053829],[104.479652074471005,19.000497412638833],[104.482510180939826,19.003693974445383],[104.483996508076032,19.005356246664437],[104.488131590056057,19.003325295776552],[104.492767950760864,19.004060856882472],[104.494914186942211,19.004401317006668],[104.496378997716988,19.004748738732104],[104.497431934547365,19.004618284604689],[104.499995707180631,19.002953312882074],[104.499995505743627,19.000336989915066],[104.503001644839614,19.000340574037534],[104.506267128720012,18.997979249583622],[104.506883879434298,18.996858267347111],[104.507106215719645,18.996454153191848],[104.506808548338029,18.993886747633827],[104.511569366799236,18.983558284194533],[104.512492685635038,18.982322579907382],[104.514178698874204,18.981782504473067],[104.518962477884145,18.981480956533336],[104.521304936305285,18.980703017301082],[104.523113089302512,18.981563988162204],[104.526027534678462,18.982592689744813],[104.530086255963383,18.985393354660108],[104.531284068001995,18.985001007727643],[104.534343519202082,18.982607021161904],[104.536159480951554,18.981540640296622],[104.536593537380199,18.98088604909772],[104.537815194538311,18.979043660274137],[104.54284306215277,18.97551796750389],[104.54428479587115,18.97316047784809],[104.54465450761964,18.970890168989815],[104.545223358123081,18.967396866720271],[104.544883265626993,18.96175201197353],[104.54468934396165,18.958533161302196],[104.547428306992728,18.953213389766205],[104.549419757878169,18.950975808108979],[104.551655151537943,18.948065498557053],[104.554317822865485,18.946291525652228],[104.555653075595544,18.944870190167805],[104.557483983036605,18.941641392425609],[104.56052813769405,18.94044889729139],[104.561985426113409,18.938969058625094],[104.564646337036891,18.93440134171837],[104.565029550843704,18.933743479461935],[104.565205129467188,18.930578499811496],[104.565998649195464,18.927621686037398],[104.567959235585391,18.92459077171933],[104.571179069838053,18.92120620641472],[104.571313367268161,18.921065033965323],[104.572277543260313,18.920051489386964],[104.572628624037918,18.918413109533553],[104.572563724117273,18.917922059987202],[104.572369200850062,18.916450230720852],[104.572720273113418,18.915395902775135],[104.573574589491983,18.914711011115507],[104.574850480238382,18.914073332440001],[104.576306097738055,18.913345811145867],[104.57750385252379,18.911548932404273],[104.578366131725502,18.908736815679738],[104.578770512393675,18.905687549148308],[104.578777938034449,18.903787413871363],[104.579167294651128,18.902703785785906],[104.579983594662608,18.901996182084034],[104.581417794316167,18.90172151239884],[104.584164371651497,18.902312863005513],[104.587719743827591,18.903802950776704],[104.588940559992267,18.904028206338836],[104.590840400110736,18.903485625074616],[104.597355898469829,18.898494154805935],[104.600125429525988,18.897420139875415],[104.604916906635225,18.896680264757926],[104.609494542330708,18.893578737667298],[104.611485954556827,18.893006761788985],[104.613107235392221,18.893201058381742],[104.614690222848154,18.893390751794804],[104.616254383494692,18.893582647778956],[104.616720164515016,18.893353775496507],[104.618733863478795,18.892364282235121],[104.621724749040595,18.891580720684122],[104.624814662634307,18.889216875902068],[104.626981470004708,18.888585207090117],[104.62853012420598,18.887580598488373],[104.629125306714215,18.886376400574186],[104.629160451860429,18.886013578955708],[104.629300796636258,18.884564709541191],[104.627767392964344,18.88176108925439],[104.627729747195232,18.881619608235788],[104.627385739090272,18.880326739640712],[104.627744347998402,18.878892724223778],[104.629880505761022,18.876612721398505],[104.631275734589195,18.87554745224103],[104.632949043329262,18.874269834648661],[104.63375634109363,18.873660560053157],[104.634528127881111,18.87290448657156],[104.634870387110652,18.872569192365738],[104.635823080953827,18.871191272751094],[104.636434332161656,18.870307180657605],[104.639180932615133,18.869086795203227],[104.646795368802159,18.867975083118512],[104.651121389113825,18.86659370392303],[104.653814496055759,18.865040851713996],[104.655126806191888,18.86511899020438],[104.656591605274571,18.864318473934116],[104.656991520592257,18.863594090386229],[104.659605206492529,18.858859591188651],[104.660696322087006,18.85797249935499],[104.661291813014387,18.857864167145291],[104.662374826918125,18.857667139088885],[104.665106307437668,18.856241855661988],[104.668341186294455,18.85359507867285],[104.668807979226656,18.853167390135209],[104.669790843162559,18.852266852044455],[104.670324726145324,18.851094025157053],[104.670370442665657,18.849253801876344],[104.670007364835072,18.848313517950796],[104.669279585628274,18.846428712340163],[104.669271971932503,18.845318189494183],[104.6722093432668,18.843745169202442],[104.672976894146544,18.843055318893466],[104.673521553304653,18.842565791150303],[104.674468270210596,18.840822041796788],[104.675535682732303,18.838855934097097],[104.677168577348013,18.837470348912806],[104.677371575399633,18.837463184836302],[104.67777542159503,18.837618193360292],[104.678069584983035,18.837604286477337],[104.678285877029367,18.837624886532641],[104.678842941013187,18.837904671916913],[104.678948502268938,18.8379350363196],[104.679260843934259,18.838024880121086],[104.679651071308911,18.838078693471669],[104.680077376173799,18.838023192714427],[104.680244528498378,18.838041061740601],[104.68299757564732,18.836955039487691],[104.683956117712171,18.83644945528885],[104.685330070145227,18.835724740354379],[104.685824187855502,18.835587281217375],[104.686252252191395,18.835418140560446],[104.68633689616054,18.835384695111067],[104.68636562943658,18.835395141528963],[104.687498843068752,18.835165260423217],[104.689316229660264,18.835284743379603],[104.689722683861078,18.835234867083422],[104.690332967328573,18.835169508492871],[104.690617530385666,18.835222490627391],[104.690681481191845,18.835256434260536],[104.690775471248202,18.835322837231914],[104.690767323906655,18.835701093383133],[104.692156310748089,18.836294361545029],[104.692555764587453,18.836348661609961],[104.693005277988775,18.836559847568164],[104.69342551932418,18.836765859874394],[104.693553453846221,18.83687446051626],[104.693624513138687,18.837019543525358],[104.693624148108981,18.837220851767409],[104.695140572388155,18.838441837414557],[104.695518823988181,18.83874639117311],[104.695599511035155,18.838742011891629],[104.695905427721698,18.838769588561341],[104.696231548278035,18.83900779845489],[104.696982417600026,18.839239989961865],[104.700217279882807,18.839651927662281],[104.701375709451128,18.839696670734494],[104.701430046974224,18.839674564887158],[104.701813759408211,18.839575474333607],[104.702110236947973,18.83952608699316],[104.702431926746186,18.839565722549828],[104.703406346453036,18.839129459570195],[104.703859742249278,18.838360308336807],[104.704825446999166,18.836722004274073],[104.706038544552541,18.835747851822305],[104.70728976505913,18.835706898075482],[104.707797147320761,18.835944858690464],[104.708820970893498,18.836425022356572],[104.709051294885356,18.836696087863544],[104.709088644400268,18.836695328906806],[104.709419769167823,18.836745734138713],[104.70960919077136,18.836795113682335],[104.709785520095053,18.836978873808039],[104.709891494794221,18.83712429436088],[104.709994198918352,18.837295051761448],[104.710081002342378,18.837477949251181],[104.710167767734092,18.837727391975765],[104.710237182171213,18.837910316571765],[104.710256991895719,18.838115039261311],[104.710270201716114,18.838130585358364],[104.710815184327188,18.838808160960927],[104.710942853053183,18.838884828604556],[104.711256503127515,18.838962598547408],[104.711709874341935,18.838956828212194],[104.712588691679969,18.839110454566423],[104.713067258506129,18.839372559474672],[104.713853157515842,18.839346959625718],[104.713878463290584,18.839349189233126],[104.713883084693109,18.839345984311617],[104.714087765993028,18.839339316798412],[104.715026161244992,18.838542059006446],[104.714967962290643,18.83727803408534],[104.714881233737557,18.835394344034647],[104.714941195219751,18.835195628009732],[104.714892380124098,18.834986590199595],[104.71485958195953,18.834924075350454],[104.714725439915114,18.832010509642362],[104.714769960866136,18.831630935525112],[104.714721520456635,18.83098371903969],[104.715178672168506,18.829796870778161]]]]}}
]
}
